state,county,location_name,location_type,address_1,address_2,city,state_2,zip,hours,notes
Illinois ,Champaign County,"Lake of the Woods, Elks Pavilion",Community Venue,301 Senna Dr,,Mahomet,IL,61853,Saturday: 1PM-3PM, 
Illinois ,Champaign County,CU Public Health District,Community Venue,201 W Kenyon Rd,,Champaign,IL,61820,Monday-Sunday:12:00AM-12:00AM,"Ballots must be deposited by 7PM on Election Day, Tuesday, November 3, 2020"
Illinois ,Champaign County,Sholem Pool,Community Venue,2205 W Sangamon Dr,,Champaign,IL,61821,Monday-Sunday:12:00AM-12:00AM,"Ballots must be deposited by 7PM on Election Day, Tuesday, November 3, 2020"
Illinois ,Cook County,Palos Heights Recreation Center,Community Venue,6601 W 127th St,,Palos Heights,IL,60463,Oct 19th-November 3: Monday-Friday: 8:30am-7:00pm; Saturday-Sunday: 9:00am-5:00pm, 
Illinois ,Cook County,Calumet Township Community Center,Community Venue,12633 S Ashland Ave,,Calumet Park,IL,60827,October 19th-Nov 3: Monday-Friday: 8:30am-7:00pm; Saturday-Sunday: 9:00am-5:00pm, 
Illinois ,Cook County,Cicero Community Center,Community Venue,2250 S 49th Ave,,Cicero,IL,60804,Oct 19th-Nov 3. 2020: Monday-Friday: 8:30am-7:00pm; Saturday-Sunday; 9:00am-5:00pm, 
Illinois ,Cook County,Cicero PSO Building,Community Venue,5410 W 34th St,,Cicero,IL,60804,October 19th-Nov 3: Monday-Friday 8:30am-7:00pm; Saturday-Sunday: 9:00am-5:00pm, 
Illinois ,Cook County,Crestwood (Andrew Biela Senior Citizen Center),Community Venue,4545 Midlothian Turnpike,,Crestwood,IL,60445,"Oct 19th-Nov 3,2020: Monday-Friday :8:30am-7:00pm; Saturday-Sunday: 9:00am-5:00pm", 
Illinois ,Cook County,Evanston Civic Center,Community Venue,2100 Ridge Ave,,Evanston,IL,60201,Oct 19th-Nov 3: Monday-Friday: 8:30am-7:00pm; Saturday-Sunday: 9:00am-5:00pm, 
Illinois ,Cook County,Matteson Community Center,Community Venue,20642 Matteson Ave,,Matteson,IL,60443,Oct 19th-Nov 3: Monday-Friday: 8:30am-7:00pm; Saturday-Sunday: 9:00am-5:00pm, 
Illinois ,Cook County,Park Ridge (Centennial Activity Center),Community Venue,100 S Western Ave,,Park Ridge,IL,60068,Oct 19th-November 3: Monday-Friday: 8:30am-7:00pm; Saturday-Sunday: 9:00am-5:00pm, 
Illinois ,Cook County,Schaumburg (Trickster Art Gallery),Community Venue,190 S Roselle Rd,,Schaumburg,IL,60193,Oct 19th-November 3: Monday-Friday: 8:30am-7:00pm; Saturday-Sunday: 9:00am-5:00pm, 
Illinois ,Cook County,South Chicago Heights Senior Center,Community Venue,3140 Enterprise Park Ave,,South Chicago Heights,IL,60411,October 19th-November 3: Monday-Friday: 8:30am-7:00pm: Saturday-Sunday: 9:00am-5:00pm, 
Illinois ,Cook County,Wilmette (Centennial Ice Rinks),Community Venue,2300 Old Glenview Rd,,Wilmette,IL,60091,Oct 19th-November 3: Monday-Friday: 8:30am-7:00pm; Saturday-Sunday: 9:00am-5:00pm, 
Illinois ,DuPage County,DuPage County Fairgrounds,Community Venue,2015 W Manchester Rd,Bld 2,Wheaton,IL,60187,"Monday-Friday, September 24-October 16: 8:00AM-4:30PM, Saturday, September 26-October 17: 9:00AM-12:00AM, Monday-Friday, October 19-November 2: 8:30AM-7:00PM, Saturday-Sunday, October 24-November 1: 9:00AM-5:00AM", 
Illinois ,DuPage County,The Annex at Abbington Banquet,Community Venue,3S002 IL Rt 53,The annex,Glen Ellyn,IL,60137,"Monday-Friday, October 19-November 2: 8:30AM-7:00PM, Saturday-Sunday, October 24-November 1: 9:00AM-5:00PM", 
Illinois ,DuPage County,Bartlett Community Center,Community Venue,700 S Bartlett Rd,Program Room 5,Bartlett,IL,60103,"Monday-Friday, October 19-November 2: 8:30AM-7:00PM , Saturday-Sunday, October 24-November 1: 9:00AM-5:00PM", 
Illinois ,DuPage County,The Courtyard,Community Venue,3s200 Rt 59,Main dining hall,Warrenville,IL,60555,"Monday-Friday, October 19-November 2: 8:30AM-7:00PM , Saturday-Sunday, October 24-November 1: 9:00AM-5:00PM", 
Illinois ,DuPage County,Fox Valley Mall,Community Venue,195 Fox Valley Center Dr,NW entrance #1 between Macy’s &amp; Carson's,Aurora,IL,60504,"Monday-Friday, October 19-November 2: 8:30AM-7:00PM , Saturday-Sunday, October 24-November 1: 9:00AM-5:00PM", 
Illinois ,DuPage County,Lisle Park Dist Wheatstack Resturant,Community Venue,5900 S Rt 53,Wheatstack restaurant Dinning Room,Lisle,IL,60532,"Monday-Friday, October 19-October 30: 8:30AM-7:00PM , Saturday, October 24 & October 31: 9:00AM-5:00PM", 
Illinois ,DuPage County,Islamic Center of Naperville,Community Venue,25w530 75th St,East wing meeting room,Naperville,IL,60565,"Monday-Friday, October 19-November 2: 8:30AM-7:00PM , Saturday-Sunday, October 24-November 1: 9:00AM-5:00PM", 
Illinois ,DuPage County,Kings Hall Banquets,Community Venue,1000 Rohlwing Rd,Unit #40,Lombard,IL,60148,"Monday-Friday, October 19-November 2: 8:30AM-7:00PM, Saturday-Sunday, October 24-November 1: 9:00AM-5:00PM", 
Illinois ,DuPage County,Old Farm Market Place,Community Venue,2011 S Washington St,South half of building,Naperville,IL,60565,"Monday-Friday, October 19-November 2: 8:30AM-7:00PM , Saturday-Sunday, October 24-November 1: 9:00AM-5:00PM", 
Illinois ,DuPage County,Stratford Square Mall,Community Venue,152 Stratford Square,"Entrance 3, Lower Level",Bloomingdale,IL,60108,"Monday-Friday, October 19-November 2: 8:30AM-7:00PM, Saturday-Sunday, October 24-November 1: 9:00AM-5:00PM", 
Illinois ,DuPage County,Yorktown Center,Community Venue,203 Yorktown Mall Dr,The Plaza Shops at Yorktown #42,Lombard,IL,60148,"Monday-Friday, October 19-November 2: 8:30AM-7:00PM, Saturday-Sunday, October 24-November 1: 9:00AM-5:00PM", 
Illinois ,DuPage County,VBM Ballot Dropbox in Parking Lot,Community Venue,421 N County Farm Rd,,Wheaton,IL,60187,"September 24-November 2: 12:00AM-11:59PM, Monday-Friday, September 24-November 3: 7:00AM-4:30PM, Tuesday, November 3: 12:00AM-7:00PM",In south 421 parking lot in middle row
Illinois ,Lake County,Gurnee Village Hall,Community Venue,325 N O'Plaine RD,,Gurnee,IL,60031,Begins on October 19 and concludes November 1: Monday-Friday: 8:30AM-7:00PM; Saturday-Sunday: 9:00AM-5:00PM ,Inside door to Early Voting room
Illinois ,Lake County,Highland Park Country Club,Community Venue,1201 Park Ave W,,Highland Park,IL,60035,Begins on October 19 and concludes November 1: Monday-Friday: 8:30AM-7:00PM; Saturday-Sunday: 9:00AM-5:00PM ,Inside door to Early Voting room
Illinois ,Lake County,Jane Addams Center,Community Venue,95 Jack Benny DR,Bowen Park,Waukegan,IL,60087,Begins on October 19 and concludes November 1: Monday-Friday: 8:30AM-7:00PM; Saturday-Sunday: 9:00AM-5:00PM ,Inside door to Early Voting room
Illinois ,Lake County,Lake County Central Permit Facility,Community Venue,500 W Winchester RD,,Libertyville,IL,60048,Begins on October 19 and concludes November 1: Monday-Friday: 8:30AM-7:00PM; Saturday-Sunday: 9:00AM-5:00PM ,Inside door to Early Voting room
Illinois ,Lake County,Lake County Fairgrounds,Community Venue,1060 E Peterson RD,,Grayslake,IL,60030,Begins on October 19 and concludes November 1: Monday-Friday: 8:30AM-7:00PM; Saturday-Sunday: 9:00AM-5:00PM ,Inside door to voting area
Illinois ,McHenry County,The Dole Mansion,Community Venue,401 . Country Club Rd.,,Crystal Lake,IL,60014,October 19-November 2: Same as Early Voting Hours,Drop Box located in Early Voting Room
Illinois ,McLean County,Grossinger Motor Arena,Community Venue,101 S Madison St,,Bloomington,IL,61701,"September 24-September 25: 8:30AM-4:30PM, September 28-October 16: 8:30AM-4:30PM, October 19-October 23: 8:30AM-7:00PM, October 24-October 25: 9:00AM-5:00PM, October 26-October 30: 8:30AM-7:00PM, October 31-November 1: 9:00AM-5:00PM, November 2: 8:30AM-7:00PM, November 3: 6:00AM-7:00PM", 
Illinois ,McLean County,Eastland Mall,Community Venue,1615 E Empire St,,Bloomington,IL,61701,"October 10-October 11: 12:00PM-6:00PM, October 17-October 18: 12:00PM-6:00PM, October 24-October 25: 12:00PM-6:00PM, October 26-October 30: 12:00PM-6:00PM", 
Illinois ,McLean County,ISU Watterson Towers,Community Venue,301 S Fell Ave,Rosa Parks Room,Normal,IL,61761,October 26-October 30: 12:00PM-7:00PM, 
Illinois ,Peoria County,Lake Camelot Clubhouse,Community Venue,9278 W Lake Camelot DR,,Mapleton,IL,61547,Thursday October 22nd: 10:00AM-6:00PM,Election Judge's Table
Illinois ,Stephenson County,Tri-District Ambulance,Community Venue,108 Main Street,,Rock City,IL,61070,September 24-November 3: 12:00AM-12:00PM, 
Illinois ,Carroll County,Carroll County Courthouse,Courthouse ,301 N Main Street,,Mount Carroll,IL,61053,September 24-November 3: Monday-Sunday: 12:00AM-12:00PM,Drop Box will be attached to building by the front entrance and under surveilance
Illinois ,Cook County,Bridgeview Courthouse,Courthouse ,10220 S 76th Ave,Room 238,Bridgeview,IL,60455,Oct 7th-November 3: Monday-Friday: 8:30am-7:00pm; Saturday-Sunday: 9:00am-5:00pm, 
Illinois ,Cook County,Markham Courthouse,Courthouse ,16501 S Kedzie Ave,Room 238,Markham,IL,60428,Oct 7th-Nov 3: Monday-Friday: 8:30am-7:00pm; Saturday-Sunday: 9:00am-5:00pm, 
Illinois ,Cook County,Maywood Courthouse - Whitcomb Building,Courthouse ,1311 Maybrook Square,Room 104,Maywood,IL,60153,Oct 7th-Nov 3: Monday-Friday: 8:30am-7:00pm; Saturday-Sunday: 9:00am-5:00pm, 
Illinois ,Cook County,Rolling Meadows Courthouse,Courthouse ,2121 Euclid Ave,Room 238,Rolling Meadows,IL,60008,Oct 19th-November 3: Monday-Friday: 8:30am-7:00pm; Saturday-Sunday: 9:00am-5:00pm, 
Illinois ,Cook County,Skokie Courthouse,Courthouse ,5600 W Old Orchard Rd,Room 149,Skokie,IL,60077,October 19th-November 3: Monday-Friday: 8:30am-7:00pm; Saturday-Sunday: 9:00am-5:00pm, 
Illinois ,Fayette County,Fayette County Courthouse,Courthouse ,221 S 7th St,Lobby,Vandalia,IL,62471,"September 24-November 3: 12:00AM-12:00PM, Collected daily",Location: North side parking lot of the Fayette County Courthouse.  Final collection 7 pm on Election Day
Illinois ,Jefferson County,Jefferson County Courthouse,Courthouse ,100 S 10th St.,Room 105A,Mount Vernon,IL,62864,10/1/2020-11/3/2020: 12:00AM-12:00PM-open 8AM 10/1 closed 7PM 11/3/20,"100 S 10th St, Courthouse parking lot southeast corner of Courthouse, enter from Broadway and exit on 9th Street.  two security cameras and lighting."
Illinois ,JoDaviess County,Jo Daviess County Courthouse,Courthouse ,330 N Bench St,"County Clerk's Office, Room 108",Galena,IL,61036,September 24-November 3: 12:00AM-12:00PM-7pm on November 3,Permanent dropbox in the exterior wall to the right of the side entrance near the flagpole
Illinois ,Lake County,Lake County Main Courthouse,Courthouse ,18 N County ST,Lobby,Waukegan,IL,60085,Begins on October 19 and concludes November 1: Monday-Friday: 8:30AM-7:00PM; Saturday-Sunday: 9:00AM-5:00PM ,Inside entrance of Early Voting area
Illinois ,Lake County,Juvenile Branch Court,Courthouse ,24647 N Milwaukee Ave,,Vernon Hills,IL,60061,Begins on October 19 and concludes November 3: 12:00AM-12:00PM,Outside Building next to Main Entrance
Illinois ,Lake County,Mundelein Branch Court,Courthouse ,105 E Route 83,,Mundelein,IL,60060,Begins on October 19 and concludes November 3: 12:00AM-12:00PM,Outside building next to Main Entrance
Illinois ,Lake County,Park City Branch Court,Courthouse ,301 Greenleaf ST,,Park City,IL,60085,Begins on October 19 and concludes November 3: 12:00AM-12:00PM,Outside building next to Main Entrance
Illinois ,Lake County,Round Lake Branch Court,Courthouse ,1792 Nicole Lane,,Round Lake Beach,IL,60073,Begins on October 19 and concludes November 3: 12:00AM-12:00PM,Outside Building next to Main Entrance
Illinois ,Logan County,LOGAN COUNTY COURTHOUSE,Courthouse ,601 Broadway St,,Lincoln,IL,62656,"September 24 until November 3: 8:30AM until 4:30PM, Sept 24, Oct 6, 7, 14, 19, 29:  8:30- 6:30PM. Columbus Day Oct 12, Saturday Oct 24 and 31: 8:30AM-noon","Just inside the front entryway to the Courthouse and to the left against the wall, marked BALLOTS ONLY"
Illinois ,Macoupin County,Macoupin County Courthouse,Courthouse ,201 E Main St.,,Carlinville,IL,62626,September 24-November 3: 12:00AM-12:00PM-7:00PM on November 3, 
Illinois ,Montgomery County,Montgomery County Historic Courthouse,Courthouse ,1 Courthouse Square,Basement Early Voting Center,Hillsboro,IL,62049,"Thursday, October 1st-Tuesday, November 3rd: 12:00AM-12:00PM a day/7 days a week",Ballot Drop Box is located on North Side of Historic Courthouse in Hillsboro
Illinois ,Adams County,County Clerk's Office,Elections Office,507 Vermont ST,,Quincy,IL,62301,September 24 and concludes November 3: Monday-Sunday: 12:00AM-12:00AM,"On November 3rd, drop box closed at 7:00 PM"
Illinois ,Brown County,Brown County Clerk’s Office,Elections Office,200 Court Street,Room 4,Mt. Sterling,IL,62353,September 24-November 3 7:00PM: Monday-Sunday: 12:00AM-12:00PM,Right side of Courthouse Entrance
Illinois ,Cass County,Cass County Clerk's Office,Elections Office,100 E Springfield St,,Virginia,IL,62691,"Begins on September 24 and concludes on November 3: Monday-Friday: 8:00AM-4:00PM, except Holidays",Attached to the building just to the right of the front door on the south entrance of the courthouse.
Illinois ,Champaign County,Champaign County Clerk's Office,Elections Office,1776 E Washington St,,Urbana,IL,61802,Opens September 26: Monday-Sunday:12:00AM-12:00AM,"Ballots must be deposited by 7PM on Election Day, Tuesday, November 3, 2020"
Illinois ,Champaign County,Rantoul Township Building,Elections Office,121 N Garrard,,Rantoul,IL,61866,Saturday: 1PM-3PM, 
Illinois ,Cook County,Cook County Clerk's Main Office,Elections Office,69 W Washington St,Pedway Room,Chicago,IL,60602, Oct 7-November 2: Monday-Friday: 8:30am-7:00pm; Saturday-Sunday: 9:00am-5:00pm; November 3: Tuesday: 6:00AM-7:00PM,Open to All Voters in Suburban Cook County
Illinois ,Cook County,Arlington Heights Village Hall,Elections Office,33 S Arlington Heights Rd,,Arlington Heights,IL,60005,October 19th-Nov 3: Monday-Friday 8:30am-7:00pm; Saturday-Sunday: 9:00am-5:00pm;, 
Illinois ,Cook County,Barrington Hills Village Hall,Elections Office,112 Algonquin Rd,,Barrington Hills,IL,60010,October 19th-Nov 3: Monday-Friday: 8:30am-7:00pm; Saturday-Sunday: 9:00am-5:00pm, 
Illinois ,Cook County,Bellwood Village Hall,Elections Office,3200 Washington Blvd,,Bellwood,IL,60104,October 19th-Nov 3: Monday-Friday: 8:30am-7:00pm; Saturday-Sunday 9:00am-5:00pm, 
Illinois ,Cook County,Elk Grove Village Hall,Elections Office,901 Wellington Ave,,Elk Grove Village,IL,60007,Oct 19th-Nov 3: Monday-Friday: 8:30am-7:00pm; Saturday-Sunday: 9:00am-5:00pm, 
Illinois ,Cook County,Elmwood Park Village Hall,Elections Office,11 W Conti Parkway,,Elmwood Park,IL,60707,Oct 19th-Nov 3: Monday-Friday: 8:30am-7:00pm; Saturday-Sunday: 9:00am-5:00pm, 
Illinois ,Cook County,Franklin Park Village Hall,Elections Office,9500 Belmont Ave,,Franklin Park,IL,60131,Oct 19th-Nov 3: Monday-Friday: 8:30am-7:00pm; Saturday-Sunday: 9:00am-5:00pm, 
Illinois ,Cook County,Glenview Village Hall,Elections Office,2500 E Lake Ave,,Glenview,IL,60025,Oct 19th-Nov 3: Monday-Friday: 8:30am-7:00pm; Saturday-Sunday: 9:00am-5:00pm, 
Illinois ,Cook County,Harvey City Hall,Elections Office,15320 Broadway Ave,,Harvey,IL,60426,Oct 19th-Nov 3: Monday-Friday: 8:30am-7:00pm; Saturday-Sunday: 9:00am-5:00pm, 
Illinois ,Cook County,Hodgkins Village Hall,Elections Office,8990 Lyons St,,Hodgkins,IL,60525,Oct 19th-Nov 3: Monday-Friday: 8:30am-7:00pm; Saturday-Sunday: 9:00am-5:00pm, 
Illinois ,Cook County,Hoffman Estates Village Hall,Elections Office,1900 Hassell Rd,,Hoffman Estates,IL,60169,Oct 19th-Nov 3: Monday-Friday: 8:30am-7:00pm; Saturday-Sunday: 9:00am-5:00pm, 
Illinois ,Cook County,Lemont Township Hall,Elections Office,1115 Warner Ave,,Lemont,IL,60439,Oct 19-Nov 3: Monday-Friday: 8:30am-7:00pm; Saturday-Sunday: 9:00am-5:00pm, 
Illinois ,Cook County,Lyons Village Hall,Elections Office,4200 S Lawndale Ave,,Lyons,IL,60534,Oct 19th-Nov 3: Monday-Friday: 8:30am-7:00pm; Saturday-Sunday: 9:00am-5:00pm, 
Illinois ,Cook County,Melrose Park Village Hall,Elections Office,1000 25th Ave,,Melrose Park,IL,60160,October 19th-Nov 3: Monday-Friday: 8:30am-7:00pm; Saturday-Sunday: 9:00am-5:00pm, 
Illinois ,Cook County,Mt. Prospect Village Hall,Elections Office,50 S Emerson St,Community Room,Mount Prospect,IL,60056,Oct 19th-Nov 3: Monday-Friday: 8:30am-7:00pm; Saturday-Sunday: 9:00am-5:00pm, 
Illinois ,Cook County,Niles Village Hall,Elections Office,1000 Civic Center Dr,,Niles,IL,60714,October 19th-November 3: Monday-Friday: 8:30am-7:00pm; Saturday-Sunday: 9:00am-5:00pm, 
Illinois ,Cook County,Norridge Village Hall,Elections Office,4000 N Olcott Ave,,Norridge,IL,60706,October 189th-November 3: Monday-Friday: 8:30am-7:00pm; Saturday-Sunday: 9:00am-5:00pm, 
Illinois ,Cook County,Northbrook Village Hall,Elections Office,1225 Cedar Lane,,Northbrook,IL,60062,October 19th-November 3: Monday-Friday: 8:30am-7:00pm; Saturday-Sunday: 9:00am-5:00pm, 
Illinois ,Cook County,Oak Forest City Hall,Elections Office,15440 S Central Ave,,Oak Forest,IL,60452,October 19th-November 3: Monday-Friday: 8:30am-7:00pm; Saturday-Sunday: 9:00am-5:00pm, 
Illinois ,Cook County,Oak Lawn Village Hall,Elections Office,9446 S Raymond Ave,,Oak Lawn,IL,60453,October 19th-November 3: Monday-Friday: 8:30am-7:00pm; Saturday-Sunday: 9:00am-5:00pm, 
Illinois ,Cook County,Oak Park Village Hall,Elections Office,123 Madison Street,,Oak Park,IL,60302,Oct 19th-November 3: Monday-Friday: 8:30am-7:00pm; Saturday-Sunday: 9:00am-5:00pm, 
Illinois ,Cook County,Orland Township Hall,Elections Office,14807 Ravinia Ave,,Orland Park,IL,60462,Oct 19th-November 3: Monday-Friday: 8:30am-7:00pm; Saturday-Sunday: 9:00am-5:00pm, 
Illinois ,Cook County,Palatine Village Hall,Elections Office,150 W Wilson Street,Temporary Village Hall,Palatine,IL,60067,Oct 19th-November 3: Monday-Friday: 8:30am-7:00pm; Saturday-Sunday: 9:00am-5:00pm, 
Illinois ,Cook County,Park Forest Village Hall,Elections Office,350 Victory Dr,,Park Forest,IL,60466,Oct 19th-November 3: Monday-Friday: 8:30am-7:00pm; Saturday-Sunday: 9:00am-5:00pm, 
Illinois ,Cook County,Streamwood Village Hall,Elections Office,301 E Irving Park Rd,,Streamwood,IL,60107,Oct 19th-November 3: Monday-Friday: 8:30am-7:00pm; Saturday-Sunday: 9:00am-5:00pm, 
Illinois ,Cook County,Tinley Park Village Hall,Elections Office,16250 S Oak Park Ave,,Tinley Park,IL,60477,October 19th-November 3: Monday-Friday: 8:30am-7:00pm; Saturday-Sunday: 9:00am-5:00pm, 
Illinois ,Cook County,Thornton Township Hall,Elections Office,333 E 162nd St,,South Holland,IL,60473,October 19th-November 3: Monday-Friday: 8:30am-7:00pm; Saturday-Sunday: 9:00am-5:00pm, 
Illinois ,Crawford County,Crawford County Annex,Elections Office,100 S Douglas St,2nd Floor,Robinson,IL,62454,"Monday-Sunday: 12:00AM-12:00PM until 7:00PM on Tuesday, November 3  ELECTION DAY", 
Illinois ,Douglas County,County Clerk's Office,Elections Office,401 S Center ST,Suite 203,Tuscola,IL,61953,Monday-Sunday: 12:00AM-12:00PM,"East side of building, North side of steps"
Illinois ,DuPage County,Addison Township Office,Elections Office,401 N Addison Rd,Gym,Addison,IL,60101,"Monday-Friday, October 19-November 2: 8:30AM-7:00PM , Saturday-Sunday, October 24-November 1: 9:00AM-5:00PM", 
Illinois ,DuPage County,Darien Office Complex,Elections Office,8255 S Lemont Rd,Main office space,Darien,IL,60561,"Monday-Friday, October 19-November 2: 8:30AM-7:00PM, Saturday-Sunday, October 24-November 1: 9:00AM-5:00PM", 
Illinois ,DuPage County,Downers Grove Village Hall,Elections Office,801 Burlington Ave,Committee Room,Downers Grove,IL,60515,"Monday-Friday, October 19-November 2: 8:30AM-7:00PM, Saturday-Sunday, October 24-November 1: 9:00AM-5:00PM", 
Illinois ,DuPage County,Elmhurst City Hall,Elections Office,209 N York St,City Council Chambers,Elmhurst,IL,60126,"Monday-Friday, October 19-October 30: 8:30AM-7:00PM , Saturday, October 24 & October 31: 9:00AM-5:00PM", 
Illinois ,DuPage County,Naperville Municipal Center,Elections Office,400 S Eagle St,Meeting Room A,Naperville,IL,60540,"Monday-Friday, October 19-November 2: 8:30AM-7:00PM, Saturday-Sunday, October 24-November 1: 9:00AM-5:00PM", 
Illinois ,DuPage County,Safety Village of Darien,Elections Office,7400 Cass Ave,Main Room,Darien,IL,60561,"Monday-Friday, October 19-October 30: 8:30AM-7:00PM, Saturday, October 24: 9:00AM-5:00PM; October 31: 9:00AM-5:00PM", 
Illinois ,Grundy County,Grundy County Clerk's Office,Elections Office,111 E. Washington Street,,Morris,IL,60450,September 24-November 3: 12:00AM-12:00PM up-7pm on November 3,Outside Courthouse
Illinois ,Henderson County,Henderson County,Elections Office,307 Warren St,,Oquawka,IL,61469,Begins Sept 24 and concludes Nov 3 at 7:00PM: 12:00AM-12:00PM/day-Closes Nov 3 at 7:00PM,Located on the left side of the sidewalk right outside the front entrance to the Courthouse (Secured/Video Surveillance)
Illinois ,Johnson County,Johnson County Clerk's Office,Elections Office,117 N 5th St,Elections Office,Vienna,IL,62995,Sept 24-November 3: 12:00AM-12:00PM; up-7pm on Nov 3,Outside County Clerk Office
Illinois ,Lake County,Antioch Township Office,Elections Office,1625 Deep Lake RD,,Lake Villa,IL,60046,Begins on October 19 and concludes November 1: Monday-Friday: 8:30AM-7:00PM; Saturday-Sunday: 9:00AM-5:00PM ,Inside door of Early Voting room
Illinois ,Lake County,Avon Township,Elections Office,433 E Washington St,,Round Lake Park,IL,60073,Begins on October 19 and concludes November 1: Monday-Friday: 8:30AM-7:00PM; Saturday-Sunday: 9:00AM-5:00PM ,Inside door to Early Voting room
Illinois ,Lake County,Ela Township Office,Elections Office,1155 E Route 22,,Lake Zurich,IL,60047,Begins on October 19 and concludes November 1: Monday-Friday: 8:30AM-7:00PM; Saturday-Sunday: 9:00AM-5:00PM ,Inside door to Early Voting room
Illinois ,Lake County,Fremont Township Office,Elections Office,22385 W Route 60,,Mundelein,IL,60060,Begins on October 19 and concludes November 1: Monday-Friday: 8:30AM-7:00PM; Saturday-Sunday: 9:00AM-5:00PM ,Inside door to Early Voting room
Illinois ,Lake County,Lake Barrington Village Hall,Elections Office,23860 N Old Barrington RD,,Lake Barrington,IL,60010,Begins on October 19 and concludes November 1: Monday-Friday: 8:30AM-7:00PM; Saturday-Sunday: 9:00AM-5:00PM ,Inside door to Early Voting room
Illinois ,Lake County,Lake Forest City Hall,Elections Office,220 E Deerpath RD,,Lake Forest,IL,60045,Begins on October 19 and concludes November 1: Monday-Friday: 8:30AM-7:00PM; Saturday-Sunday: 9:00AM-5:00PM ,Inside door to Early Voting room
Illinois ,Lake County,North Chicago City Hall,Elections Office,1850 Lewis AVE,,North Chicago,IL,60064,Begins on October 19 and concludes November 1: Monday-Friday: 8:30AM-7:00PM; Saturday-Sunday: 9:00AM-5:00PM ,Inside door to Early Voting room
Illinois ,Lake County,Wauconda Township Office,Elections Office,505 W Bonner RD,,Wauconda,IL,60084,Begins on October 19 and concludes November 1: Monday-Friday: 8:30AM-7:00PM; Saturday-Sunday: 9:00AM-5:00PM ,Inside door of Early Voting room
Illinois ,Lake County,West Deerfield Township Office,Elections Office,601 Deerfield RD,,Deerfield,IL,60015,Begins on October 19 and concludes November 1: Monday-Friday: 8:30AM-7:00PM; Saturday-Sunday: 9:00AM-5:00PM ,Inside door to Early Voting room
Illinois ,Lake County,Zion City Hall,Elections Office,2828 Sheridan RD,,Zion,IL,60099,Begins on October 19 and concludes November 1: Monday-Friday: 8:30AM-7:00PM; Saturday-Sunday: 9:00AM-5:00PM ,Inside door to Early Voting room
Illinois ,LaSalle County,LaSalle County Government Center,Elections Office,707 E Etna RD,,Ottawa,IL,61350,September 24th-November 3: 8:00AM-4:30PM Monday-Friday (except Holidays),The VBM Ballot Drop Box is located outside at the Governmental Complex on the east side of building in parking lot.
Illinois ,Livingston County,County Clerk's Office,Elections Office,112 W Madison ST,,Pontiac,IL,61764,"September 24-November 3: Begins September 24 and continues-Tuesday, November 3 at 7:00PM","West side of Historic Courthouse, next to the outside elevator lift"
Illinois ,Macoupin County,Girard City Hall,Elections Office,111 W Madison St,,Girard,IL,62640,"Saturday, October 17: 10:00AM-11:30AM", 
Illinois ,Macoupin County,Brighton Municipal Building,Elections Office,206 S Main St,,Brighton,IL,62012,"Monday, October 19: 6:00PM-7:30PM", 
Illinois ,Macoupin County,Palmyra Municipal Building,Elections Office,114 E State St,,Palmyra,IL,62674,"Thursday, October 22: 6:00PM-7:30PM", 
Illinois ,Macoupin County,Gillespie Civic Center,Elections Office,115 Macoupin St,,Gillespie,IL,62033,"Saturday, October 24: 10:00AM-11:30AM", 
Illinois ,Macoupin County,Staunton City Clerk Office,Elections Office,101 W Pearl St,,Staunton,IL,62088,"Sunday, October 25: 3:00PM-4:30PM", 
Illinois ,Macoupin County,Mt. Olive City Hall,Elections Office,215 E Main St,,Mt. Olive,IL,62069,"Monday, October 26: 6:00PM-7:30PM", 
Illinois ,Macoupin County,Virden Township Building,Elections Office,232 N Masterson St,,Virden,IL,62690,"Tuesday, October 27: 6:00PM-7:30PM", 
Illinois ,Macoupin County,Bunker Hill Municipal Building,Elections Office,801 S Franklin St,,Bunker Hill,IL,62014,"Wednesday, October 28: 6:00PM-7:30PM", 
Illinois ,Madison County,Madison County Administration Bldg,Elections Office,157 N Main St,,Edwardsville,IL,62025,"September 24-October 16: 8:30AM-4:30PM, October 19-October 23: 8:30AM-7:00PM, October 24 and October 31 : 9:00AM-5:00PM, October 25 and November 1: 9:00AM-5:00PM,  October 26-October 30: 8:30AM-7:00PM, November 2 : 8:30AM-7:00PM, November 3: 6:00AM-7:00PM",Regular Business Hours
Illinois ,Mason County,Mason County Clerk,Elections Office,100 N Broadway St,,Havana,IL,62644,September 24-November 3: Monday-Sunday: 12:00AM-12:00PM,Available for voters of Mason County to use for drop off of applications and ballots and is located on the outside of the wall of the Courthouse building to the left of the front entry door
Illinois ,McHenry County,McHenry County Adminstation Building,Elections Office,667 Ware RD,"2nd Floor, Conference Room B",Woodstock,IL,60098,September 24-November 3: 12:00AM-12:00PM,"Drive-up drop box is located in main parking lot, on first center island closest to door."
Illinois ,McHenry County,Lake in the Hills Village Hall,Elections Office,600 Harvest Gate,Basement,Lake in the Hills,IL,60156,October 19-November 2: Same as Early Voting hours,Drop Box is located inside Early Voting Room
Illinois ,McHenry County,McHenry Township Offices,Elections Office,3703 N Richmond RD,,Johnsburg,IL,60051,October 19-November 2: Same as Early Voting Hours,Drop Box is located in Early Voting room
Illinois ,McHenry County,McHenry City Hall,Elections Office,333 S Green ST,Court Entrance Only,McHenry,IL,60050,October 19-November 2: Same as Early Voting Hours,Ballot Drop Box is located in Early Voting Room
Illinois ,Menard County,Menard County Clerk &amp; Recorder,Elections Office,102 S 7th St,,Petersburg,IL,62642,Begins on September 24 and concludes on November 3: Monday-Friday: 8:00am-4:00pm , 
Illinois ,Morgan County,Morgan County Clerk's Office,Elections Office,300 W State Street,,Jacksonville,IL,62650,September 24-November 3: 12:00AM-12:00PM,"Drop box will bw available 24 hours a day until 7 pm on Election Day November 3, 2020"
Illinois ,Peoria County,Peoria County Election Commission,Elections Office,4422 N Brandywine Dr,STE 1,Peoria,IL,61614,September 24th-November 3rd: 12:00AM-12:00PM a day until 7PM November 3rd,Right side of Entrance to Election Commission Office Parking Lot
Illinois ,Peoria County,Kickapoo Township Hall,Elections Office,10025 W Route 150,,Edwards,IL,61528,Tuesday October 27th: 10:00AM-6:00PM,Election Judge's Table
Illinois ,Saline County,Saline County Clerk's Election Office,Elections Office,10 E Poplar Street,,Harrisburg,IL,62946,September 24-November 3: Monday-Friday: 8AM-4PM except Holidays,"Saturday, October 31, 2020 from 8 a.m. till noon"
Illinois ,Sangamon County,Sangamon County Clerk's Office,Elections Office,200 S 9th Street,Room 101,Springfield,IL,62701,"September 24th-November 3rd: Monday-Friday: 12AM-12PM until 7:00pm on Nov. 3rd, September 24th-November 3rd: Monday-Friday: 12AM-12PM until 7:00PM on Nov. 3rd","Sangamon County Complex-200 S. 9th Street, Springfield (South side of building on Monroe St.)"
Illinois ,Stark County,Stark County Clerk Office,Elections Office,130 W Main ST,,Toulon,IL,61483,Begins September 24 and concludes November 3: Monday-Friday: 12AM-12PM,Located in the back of Courthouse next to fence. There will be signage marking the location.
Illinois ,St. Clair County,St. Clair County Clerk Office,Elections Office,10 Public Square,2nd Floor,Belleville,IL,62220,Begins on September 24 and concludes on November 3: Ends on November 3 at 7:00PM,Curbside in front of County Courthouse
Illinois ,Stephenson County,Stephenson County Election Office,Elections Office,50 W Douglas,Lower Level,Freeport,IL,61032,September 24 and concludes November 3: 12:00AM-12:00PM, 
Illinois ,Washington County,COUNTY CLERK'S OFFICE,Elections Office,101 E ST LOUIS ST,,NASHVILLE,IL,62263,October 1-November 3: 12:00AM-12:00AM, 
Illinois ,Wayne County,Wayne County Clerk Office,Elections Office,301 E Main ST,,Fairfield,IL,62837,09/24/2020-11/3/2020: 12:00AM-12:00PM,outside security entrance Wayne Co. Courthouse
Illinois ,Whiteside County,Whiteside County Clerk's Office,Elections Office,200 E Knox St.,,Morrison,IL,61270,September 24-November 2: 12:00AM-12:00PM,Located by the entrance to the Morrison Courthouse from the parking lot.
Illinois ,Will County,Will County Clerk's Office,Elections Office,302 N Chicago ST,,Joliet,IL,60432,September 24-November 3: Monday-Sunday: 12:00AM-12:00PM,Outside drive-up dropbox (under surveillance)
Illinois ,Woodford County,County Clerk's Office,Elections Office,115 N Main St,Rm 104,Eureka,IL,61530,Begins on September 24 and concluding on November 3: 12:00AM-12:00PM concluding at 7:00PM On NOVEMBER 3, 
Illinois ,City of Galesburg,City Election Office (City Hall),Elections Office,55 w Tompkins St,,Galesburg,IL,61401,September 24th-November 3: 12:00AM-12:00PM,"A secure ballot drop box is located on the City Hall front sidewalk, 55 W. Tompkins St., so voters can submit their Ballot Return Envelopes. If submitted in the drop box, ballots must be received prior to the polls closing (at 7:00 PM) on Election Day."
Illinois ,City of Rockford,Rockford Election Commssion Office,Elections Office,301 S 6th ST,,Rockford,IL,61104,October 1-November 3: 12:00AM-12:00PM Ends November 3 at 7:00PM,City of Rockford Residents Only
Illinois ,Champaign County,Douglas Branch Library,Library,504 E Grove St,,Champaign,IL,61820,Opens September 26: Monday-Sunday:12:00AM-12:00AM,"Ballots must be deposited by 7PM on Election Day, Tuesday, November 3, 2020"
Illinois ,Champaign County,Tolono Public Library,Library,111 E Main St,,Tolono,IL,61880,Saturday: 1PM-3PM, 
Illinois ,Champaign County,Champaign Public Library,Library,200 W Green St,,Champaign,IL,61820,Monday-Sunday:12:00AM-12:00AM,"Ballots must be deposited by 7PM on Election Day, Tuesday, November 3, 2020"
Illinois ,Champaign County,Urbana Free Library,Library,210 W Green St,,Champaign,IL,61801,Monday-Sunday:12:00AM-12:00AM,"Ballots must be deposited by 7PM on Election Day, Tuesday, November 3, 2020"
Illinois ,Cook County,Burbank (Prairie Trails Library District),Library,8449 S Moody Ave,,Burbank,IL,60459,Oct 19th-Nov 3: Monday-Friday; 8:30am-7:00pm; Saturday-Sunday: 9:00am-5:00pm, 
Illinois ,Cook County,Calumet City Public Library,Library,660 S Manistee Ave,,Calumet City,IL,60827,Oct 19-Nov 3: Monday-Friday: 8:30am-7:00pm; Saturday-Sunday: 9:00am-5:00pm, 
Illinois ,Cook County,Des Plaines Public Library,Library,1501 Ellinwood St,,Des Plaines,IL,60016,October 19th-Nov 3: Monday-Friday: 8:30am-7:00pm; Saturday-Sunday: 9:00am-5:00pm, 
Illinois ,Cook County,Lansing Public Library,Library,2750 Indiana Ave,,Lansing,IL,60438,Oct 19th-Nov 3: Monday-Friday: 8:30am-7:00pm; Saturday-Sunday: 9:00am-5:00pm, 
Illinois ,Cook County,Wheeling (Indian Trails Public Library),Library,355 Schoenbeck Rd,,Wheeling,IL,60090,Oct 19th-November 3: Monday-Friday: 8:30am-7:00pm; Saturday-Sunday: 9:00am-5:00pm, 
Illinois ,Macoupin County,Benld Public Library,Library,308 E Central Ave,,Benld,IL,62009,"Tuesday, October 20: 6:00PM-7:30PM", 
Illinois ,Peoria County,Lillie M Evans Library,Library,207 N Walnut ST,,Princeville,IL,61559,Monday October 19th: 10:00AM-6:00PM,Election Judge's Table
Illinois ,Peoria County,Brimfield Public Library,Library,111 S Galena AVE,,Brimfield,IL,61517,Wednesday October 21st: 10:00AM-6:00PM,Election Judge's Table
Illinois ,Peoria County,Peoria Heights Public Library,Library,816 E Glen AVE,,Peoria Heights,IL,61616,"Friday, October 23rd: 10:00AM-6:00PM",Election Judge's Table
Illinois ,Peoria County,Alpha Park Public Library,Library,3527 Airport RD,,Peoria,IL,61607,"Friday October 30th: 10:00AM-6:00PM, Saturday October 24th-31st : 10:00AM-1:00PM",Election Judge's Table
Illinois ,Peoria County,Dunlap Public Library,Library,302 S First ST,,Dunlap,IL,61525,"Friday October 30th: 10:00AM-6:00PM, Saturday October 24th-31st: 10:00AM-1:00PM",Election Judge's Table
Illinois ,Peoria County,Chillicothe Public Library,Library,430 N Bradley ST,,Chillicothe,IL,61523,October 28th-29th: Wednesday-Thursday: 10:00AM-6:00PM,Election Judge's Table
Illinois ,Peoria County,Peoria Public Librarry (Downtown),Library,107 NE Monroe ST,,Peoria,IL,61602,"October 28th-30th: Wednesday- Friday: 10:00AM-6:00PM, Saturday October 31st: 10:00AM-1:00PM, Sunday November 1st: 12:00PM-3:00PM, September 24-November 2: 12:00AM-12:00PM, ",Election Judge's Table
Illinois ,Will County,Wilmington Library,Library,201 S Kankakee ST,,Wilmington,IL,60481,"October 9-October 10: Friday-Saturday: 9:00AM-5:00PM, October 11: Sunday: 12:00PM-5:00PM, October 12-October 15: Monday-Thursday: 9:00AM-5:00PM, October 16-October 17: Friday-Saturday: 9:00AM-5:00PM, October 18: Sunday: 12:00PM-5:00PM, October 19-October 22: Monday-Thursday: 9:00AM-5:00PM, October 23-October 24: Friday-Saturday: 9:00AM-5:00PM, October 25: Sunday: 12:00PM-5:00PM, October 26-October 29: Monday-Thursday: 9:00AM-5:00PM, October 30-October 31: Friday-Saturday: 9:00AM-5:00PM, November 1: Sunday: 12:00PM-5:00PM, November 2: Monday: 9:00AM-5:00PM, ",Next to circulation desk
Illinois ,Will County,Frankfort Public Library,Library,21119 S Pfeiffer RD,,Frankfort,IL,60423,"October 9-October 10: Friday-Saturday: 9:00AM-5:00PM, October 12-October 15: Monday-Thursday: 9:00AM-9:00PM, October 16-October 17: Friday-Saturday: 9:00AM-5:00PM, October 19-October 22: Monday-Thursday: 9:00AM-9:00PM, October 23-October 24: Friday-Saturday: 9:00AM-5:00PM, October 26-October 29: Monday-Thursday: 9:00AM-9:00PM, October 30-October 31: Friday-Saturday: 9:00AM-5:00PM, November 2: Monday: 9:00AM-9:00PM",Across from circulation desk
Illinois ,Will County,Naperville - 95th Street Library,Library,3015 Cedar Glade RD,,Naperville,IL,60564,"October 10: Saturday: 9:00AM-5:00PM, October 11: Sunday: Noon-9:00PM, October 12-October 16: Monday-Friday: 9:00AM-9:00PM, October 17: Saturday: 9:00AM-5:00PM, October 18: Sunday: Noon-9:00PM, October 19-October 23: Monday-Friday: 9:00AM-9:00PM, October 24: Saturday: 9:00AM-5:00PM, October 25: Sunday: Noon-9:00PM, October 26-October 30: Monday-Friday: 9:00AM-9:00PM, October 31: Saturday: 9:00-5:00PM, November 1: Sunday: Noon-9:00PM, November 2: Monday: 9:00AM-9:00PM",Next to the circulation desk
Illinois ,Will County,Fountaindale Public Library,Library,300 W Briarcliff RD,,Bolingbrook,IL,60440,"October 9-October 10: Friday-Saturday: 9:00AM-6:00PM, October 11: Sunday: Noon-6:00PM, October 12-October 15: Monday-Thursday: 9:00AM-9:00PM, October 16-October 17: Friday-Saturday: 9:00AM-6:00PM, October 18: Sunday: Noon-6:00PM, October 19-October 22: Monday-Thursday: 9:00AM-9:00PM, October 23-October 24: Friday-Saturday: 9:00AM-6:00PM, October 25: Sunday: Noon-6:00PM, October 26-October 29: Monday-Thursday: 9:00AM-9:00PM, October 30-October 31: Friday-Saturday: 9:00AM-6:00PM, November 1: Sunday: Noon-6:00PM, November 2: Monday: 9:00AM-9:00PM",Main floor next to staircase
Illinois ,Will County,Plainfield Public Library,Library,15025 S Illinois ST,,Plainfield,IL,60544,"October 9-October 10: Friday-Saturday: 10:00AM-3:00PM, October 12-October 15: Monday-Thursday: 10:00AM-6:00PM, October 16-October 17: Friday-Saturday: 10:00AM-3:00PM, October 19-October 22: Monday-Thursday: 10:00AM-6:00PM, October 23-October 24: Friday-Saturday: 10:00AM-3:00PM, October 26-October 29: Monday-Thursday: 10:00AM-6:00PM, October 30-October 31: Friday-Saturday: 10:00AM-3:00PM, November 2: Monday: 10:00AM-6:00PM",Top of staircase inside main entrance
Illinois ,Will County,White Oak Library,Library,121 E Eighth ST,,Lockport,IL,60441,"October 9-October 10: Friday-Saturday: 10:00AM-5:00PM, October 11: Sunday: 1:00PM-5:00PM, October 12-October 15: Monday-Thursday: 10:00AM-8:30PM, October 16-October 17: Friday-Saturday: 10:00AM-5:00PM, October 18: Sunday: 1:00PM-5:00PM, October 19-October 22: Monday-Thursday: 10:00AM-8:30PM, October 23-October 24: Friday-Saturday: 10:00AM-5:00PM, October 25: Sunday: 1:00PM-5:00PM, October 26-October 29: Monday-Thursday: 10:00AM-8:30PM, October 30-October 31: Friday-Saturday: 10:00AM-5:00PM, November 1: Sunday: 1:00PM-5:00PM, November 2: Monday: 10:00AM-8:30PM",Right side of circulation desk inside main entrance
Illinois ,Lake County,William E. Peterson Park,Park,16652 N Buffalo Grove RD,,Prairie View,IL,60069,Begins on October 19 and concludes November 1: Monday-Friday: 8:30AM-7:00PM; Saturday-Sunday: 9:00AM-5:00PM ,Inside door to Early Voting room
Illinois ,Champaign County,Prince of Peace Lutheran Church,Place of Worship,802 E Douglas,,St. Joseph,IL,61873,Saturday: 1PM-3PM, 
Illinois ,Peoria County,Hanna City United Methodist Church,Place of Worship,12208 W Farmington RD,,Hanna City,IL,61536,Tuesday October 20th: 10:00AM-6:00PM,Election Judge's Table
Illinois ,Peoria County,United Methodist Church,Place of Worship,821 W Main ST,,Elmwood,IL,61529,Monday October 26th: 10:00AM-6:00PM,Election Judge's Table
Illinois ,Champaign County,"U of I Quad, Northwest Corner",School,1401 W Green St,Accessible by Foot or Bike Only,Urbana,IL,61801,Monday-Sunday:12:00AM-12:00AM,"Ballots must be deposited by 7PM on Election Day, Tuesday, November 3, 2020"
Illinois ,Cook County,Chicago Heights (Prairie State College),School,202 S Halsted St,ROOM 1318,Chicago Heights,IL,60411,October 19th-Nov 3: Monday-Friday: 8:30am-7:00pm; Saturday-Sunday: 9:00am-5:00pm,Room 1318
Illinois ,Cook County,Skokie (Oakton Community College-Skokie Campus),School,7701 Lincoln St,,Skokie,IL,60077,Oct 19th-November 3: Monday-Friday: 8:30am-7:00pm; Saturday-Sunday: 9:00am-5:00pm, 
Illinois ,DuPage County,College of DuPage,School,425 Fawell Blvd,IRC Rm 1020,Glen Ellyn,IL,60137,"Monday-Friday, October 19-October 30: 8:30AM-7:00PM , Saturday, October 24 & October 31: 9:00AM-5:00PM", 
Illinois ,McLean County,ISU Bone Student Center,School,100 N University St,,Normal,IL,61761,October 26-October 30: 10:00AM-5:00PM, 
Illinois ,Will County,Governors State University,School,1 University PKWY,,University Park,IL,60484,September 24-September 25: Thursday-Friday: 6:00AM-10:30PM,Inside main entrance to the left
Illinois ,Will County,Governors State University,School,1 University PKWY,,University Park,IL,60484,"October 10: Saturday: 7:00AM-6:00PM, October 11: Sunday :12:00PM-9:00PM, October 12-October 16: Monday-Friday: 6:00AM-10:30PM, October 17: Saturday: 7:00AM-6:00PM, October 18: Sunday: 12:00PM-9:00PM, October 19-October 23: Monday-Friday: 6:00AM-10:30PM, October 24: Saturday: 7:00AM-6:00PM, October 25: Sunday: 12:00PM-9:00PM, October 26-October 30: Monday-Friday: 6:00AM-10:30PM, October 31: Saturday: 7:00AM-6:00PM, November 1: Sunday: 12:00PM-9:00PM, November 2: Monday: 6:00AM-10:30PM",Inside main entrance to the left
Illinois ,Cook County,Union Station,Public Transit Facility,225 S Canal St,,Chicago,IL,60606,Oct 19th-November 3: Monday-Friday: 8:30am-7:00pm; Saturday-Sunday: 9:00am-5:00pm, 