state,county,authority_name,location_type,location_name,address_1,address_2,pobox,city,state_2,zip,phone,email,fax
New York,Albany, Board of Elections,Elections Office, Board of Elections,260 South Pearl Street,,,Albany,NY,12202,518-487-5060,boardofelections@albanycounty.com,
New York,Allegany, Board of Elections,Elections Office, Board of Elections,8 Wille tts Ave.,,,Belmont,NY,14813,585-268-9294,ACBOE@alleganyco.com,
New York,Bronx, Board of Elections,Elections Office, Board of Elections,780 Grand Concourse,5th Floor,,Bronx,NY,10457,718-299-9017,voterreg@boe.nyc.ny.us,
New York,Broome, Board of Elections,Elections Office, Board of Elections,60 Hawley St. Government Plaza,,PO Box 1766,Binghamton,NY,13902,607-778-2172,bcboe@co.broome.ny.us,
New York,Cattaraugus, Board of Elections,Elections Office, Board of Elections,207 Rock City Street,Suite 100,,Little Valley,NY,14755,716-938-2400,BOE,
New York,Cayuga, Board of Elections,Elections Office, Board of Elections,157 Genesee Street ,Basement,,Auburn ,NY,13021,315-253-1285,election@cayugacounty.us,
New York,Chautauqua, Board of Elections,Elections Office, Board of Elections,7 North Erie Street,,,Mayville,NY,14757,716-753-4580,vote@co.chautauqua.ny.us,
New York,Chemung, Board of Elections,Elections Office, Board of Elections,378 So. Main Street,,PO Box 588,Elmira,NY,14902-0588,607-737-5475,votechemung@chemungcountyny.gov,
New York,Chenango, Board of Elections,Elections Office, Board of Elections,5 Court Street,,,Norwich,NY,13815,607-337-1760,boe@co.chenango.ny.us,
New York,Clinton, Board of Elections,Elections Office, Board of Elections,137 Margaret Street,Suite 104,,Plattsburgh,NY,12901,518-565-4740,BOE@clintoncountygov.com,
New York,Columbia, Board of Elections,Elections Office, Board of Elections,401 State St.,,,Hudson,NY,12534,518-828-3115,elections@columbiacountyny.com,
New York,Cortland, Board of Elections,Elections Office, Board of Elections,112 River Street,Suite 1,,Cortland,NY,13045-2828,607-753-5032,elections@cortland-co.org,
New York,Delaware, Board of Elections,Elections Office, Board of Elections,3 Gallant Ave.,,,Delhi,NY,13753,607-832-5321,boe.move@co.delaware.ny.us,
New York,Dutchess, Board of Elections,Elections Office, Board of Elections,47 Cannon St.,,,Poughkeepsie,NY,12601,845-486-2473,dutchesselections@dutchessny.gov,
New York,Erie, Board of Elections,Elections Office, Board of Elections,134 West Eagle St.,,,Buffalo,NY,14202,716-858-8891,https://www.elections.erie.gov/contact,
New York,Essex, Board of Elections,Elections Office, Board of Elections,7551 Court Street,,PO Box 217,Elizabethtown,NY,12932,518-873-3474,elections@essexcountyny.gov,
New York,Franklin, Board of Elections,Elections Office, Board of Elections,355 West Main Street,Suite 161,,Malone,NY,12953-1823,518-481-1663,boe@franklincony.org,
New York,Fulton, Board of Elections,Elections Office, Board of Elections,2714 STHWY 29 ,Suite 1,,Johnstown,NY,12095-9946,518-736-5526,boe@fultoncountyny.gov,
New York,Genesee, Board of Elections,Elections Office, Board of Elections,15 Main Street,,,Batavia,NY,14020,585-815-7804,election@co.genesee.ny.us,
New York,Greene, Board of Elections,Elections Office, Board of Elections,411 Main Street ,Suite 437,,Catskill,NY,12414,518-719-3550,elections@discovergreene.com,
New York,Hamilton, Board of Elections,Elections Office, Board of Elections,Route 8,,PO Box 175,Lake Pleasant,NY,12108,518-548-4684,elections@hamiltoncountyny.gov,
New York,Herkimer, Board of Elections,Elections Office, Board of Elections,109  Mary Street ,Suite 1306,,Herkimer,NY,13350,315-867-1102,HCBoe@herkimercounty.org,
New York,Jefferson, Board of Elections,Elections Office, Board of Elections,175 Arsenal St.,,,Watertown,NY,13601,315-785-3027,elections@co.jefferson.ny.us,
New York,Kings, Board of Elections,Elections Office, Board of Elections,345 Adams Street,4th Floor,,Brooklyn,NY,11201,718-797-8800,voterreg@boe.nyc.ny.us,
New York,Lewis, Board of Elections,Elections Office, Board of Elections,7660 N. State Street,,,Lowville,NY,13367,315-376-5329,elections@lewiscountyny.org,
New York,Livingston, Board of Elections,Elections Office, Board of Elections,6 Court Street ,Room 104,,Geneseo,NY,14454-1043,585-243-7090,election@co.livingston.ny.us,
New York,Madison, Board of Elections,Elections Office, Board of Elections,POBox 666,,,Wampsville,NY,13163,315-366-2231,BOEcommissioners@madisoncounty.ny.gov,
New York,Monroe, Board of Elections,Elections Office, Board of Elections,39 Main St. West,,,Rochester,NY,14614,585-753-1550,mcboe@monroecounty.gov,
New York,Montgomery, Board of Elections,Elections Office, Board of Elections,9 Park Street,,PO Box 1500,Fonda,NY,12068-1500,518-853-8180,boe@co.montgomery.ny.us,
New York,Nassau, Board of Elections,Elections Office, Board of Elections,240 Old Country Road,5th Floor,PO Box 9002,Mineola,NY,11501,516-571-8683,InfoBOE@nassaucountyny.gov,
New York,New York City, Board of Elections,Elections Office, Board of Elections,32 Broadway ,7th Floor,,New York,NY,10004,212-487-5300,electioninfo@boe.nyc.ny.us,
New York,New York County, Board of Elections,Elections Office, Board of Elections,200 Varick Street,10th Floor,,New York,NY,10014,212-886-2100,voterreg@boe.nyc.ny.us,
New York,Niagara, Board of Elections,Elections Office, Board of Elections,111 Main Street ,Suite 100,,Lockport,NY,14094,716-438-4040,ncboe@niagaracounty.com,
New York,Oneida, Board of Elections,Elections Office,Union Station - Board of Elections,321 Main Street,3rd Floor,,Utica,NY,13501,315-798-5765,BoardofElections@ocgov.net,
New York,Onondaga, Board of Elections,Elections Office, Board of Elections,1000 Erie Boulevard West,,,Syracuse,NY,13204,315-435-3312,elections@ongov.net,
New York,Ontario, Board of Elections,Elections Office, Board of Elections,74 Ontario Street,,,Canandaigua,NY,14424,585-396-4005,BOE@co.ontario.ny.us,
New York,Orange, Board of Elections,Elections Office, Board of Elections,75 Webster Avenue,,PO Box 30,Goshen,NY,10924,845-360-6500,elections@orangecountygov.com,
New York,Orleans, Board of Elections,Elections Office, Board of Elections,14016 State Route 31 West ,Suite 140,,Albion,NY,14411,585-589-3274,Electionsrleansny.com,
New York,Oswego, Board of Elections,Elections Office, Board of Elections,185 E. Seneca Street ,Box 9,,Oswego,NY,13126,315-349-8350,OswegoCounty.BOE@oswegocounty.com,
New York,Otsego, Board of Elections,Elections Office, Board of Elections,140 County Highway 33W,Suite 2,,Cooperstown,NY,13326,607-547-4247,boe@otsegocounty.com,
New York,Putnam, Board of Elections,Elections Office, Board of Elections,25 Old Route 6,,,Carmel,NY,10512,845-808-1300,PutnamCountyElections@utnamcountyny.gov,
New York,Queens, Board of Elections,Elections Office, Board of Elections,118-35 Queens Boulevard,,,Forest Hills,NY,11375,718-730-6730,voterreg@boe.nyc.ny.us,
New York,Rensselaer, Board of Elections,Elections Office, Board of Elections,1600 Seventh Ave.,,,Troy,NY,12180,518-270-2990,RenscoBOE@rensco.com,
New York,Richmond, Board of Elections,Elections Office, Board of Elections,1 Edgewat er Plaza ,4th Floor,,Staten Island,NY,10305,718-876-0079,voterreg@boe.nyc.ny.us,
New York,Rockland, Board of Elections,Elections Office, Board of Elections,11 New Hempstead Road,,,New City,NY,10956,845-638-5172,voterinfo@co.rockland.ny.us,
New York,Saratoga, Board of Elections,Elections Office, Board of Elections,50 W. High St,,,Ballston Spa,NY,12020,518-885-2249,elections@saratogacountyny.gov,
New York,Schenectady, Board of Elections,Elections Office, Board of Elections,2696 Hamburg Street,,,Schenectady,NY,12303,518-377-2469,boe@schenectadycounty.com,
New York,Schoharie, Board of Elections,Elections Office, Board of Elections,284 Main Street,,PO Box 99,Schoharie,NY,12157,518-295-8388,boe@co.schoharie.ny.us,
New York,Schuyler, Board of Elections,Elections Office, Board of Elections,105  9th Street ,Unit 13,,Watkins Glen,NY,14891-9972,607-535-8195,elections@co.schuyler.ny.us,
New York,Seneca, Board of Elections,Elections Office, Board of Elections,One DiPronio Drive,,,Waterloo,NY,13165,315-539-1760,boe@co.seneca.ny.us,
New York,St. Lawrence, Board of Elections,Elections Office, Board of Elections,80 State Highway 310,,,Canton,NY,13617,315-379-2202,slcballot@stlawco.org,
New York,Steuben, Board of Elections,Elections Office, Board of Elections,3 E. Pulteney Square,,,Bath,NY,14810,607-664-2260,elections@SteubenCountyNY.gov,
New York,Suffolk, Board of Elections,Elections Office, Board of Elections,Yaphank Avenue,,PO Box 700 ,Yaphank,NY,11980,631-852-4500,BOEinfo@suffolkcountyny.gov,
New York,Sullivan, Board of Elections,Elections Office, Board of Elections,100 North Street,,PO Box 5012,Monticello,NY,12701-5192,845-807-0400,scboe@co.sullivan.ny.us,
New York,Tioga, Board of Elections,Elections Office, Board of Elections,1062 State Route 38,,PO Box 306,Owego,NY,13827,607-687-8261,votetioga@co.tioga.ny.us,
New York,Tompkins, Board of Elections,Elections Office, Board of Elections,128 E. Buffalo Street,,,Ithaca,NY,14850,607-274-5522,elections@tompkins-co.org,
New York,Ulster, Board of Elections,Elections Office, Board of Elections,284 Wall Street,,,Kingston,NY,12401,845-334-5470,elections@co.ulster.ny.us,845-334-5434
New York,Warren, Board of Elections,Elections Office, Board of Elections,1340 State Route 9 ,"3rd Fl.- Human Serv., ",,Lake George,NY,12845,518-761-6456,boe@warrencountyny.gov,518-761-6480
New York,Washington, Board of Elections,Elections Office, Board of Elections,383 Broadway,,,Fort Edward,NY,12828,518-746-2180,BoardofElections@Washingtoncountyny.gov,518-746-2179
New York,Wayne, Board of Elections,Elections Office, Board of Elections,7376 State Route 31,,PO Box 636,Lyons,NY,14489,315-946-7400,elections@co.wayne.ny.us,315-946-7409
New York,Westchester, Board of Elections,Elections Office, Board of Elections,25 Quarropas Street,,,White Plains,NY,10601,914-995-5700,BOE-West@westchestergov.com,914-995-3190
New York,Wyoming, Board of Elections,Elections Office, Board of Elections,4 Perry Avenue,,,Warsaw,NY,14569,585-786-8931,boewyoming@wyomingco.net,585-786-8843
New York,Yates, Board of Elections,Elections Office, Board of Elections,417 Liberty Street,Suite 1124,,Penn Yan,NY,14527,315-536-5135,boardofelections@yatescounty.org,315-536-5523