state,county,location_name ,location_type,address_1,address_2,pobox,city,state_2,zip,phone,email,fax
North Dakota,Slope,County Auditor,Elections Office,206 Main St ,,,Amidon,ND,58620-0449,(701) 879-6276,lbuzalsky@nd.gov,(701) 879-6278
North Dakota,McIntosh,County Auditor,Elections Office,,,PO Box 39 ,Ashley,ND,58413-0039,(701) 288-5141,gketterl@nd.gov,(701) 288-3671
North Dakota,Golden Valley,County Auditor,Elections Office,,,PO Box 67 ,Beach,ND,58621-0067,(701) 872-4331,tsperry@nd.gov,(701) 872-4383
North Dakota,Burleigh,County Auditor,Elections Office,,,PO Box 5518 ,Bismarck,ND,58506-5518,(701) 222-6718 Ext.,burleighauditor@nd.gov,(701) 222-7528
North Dakota,Bottineau,County Auditor,Elections Office,314 W. 5th St.,Ste 10,,Bottineau,ND,58318-1268,(701) 228-2225,lisa.herbel@co.bottineau.nd.us,(701) 228-5181
North Dakota,Burke,County Auditor,Elections Office,,,PO Box 310 ,Bowbells,ND,58721-0310,(701) 377-2861,jsjensen@nd.gov,(701) 377-2866
North Dakota,Bowman,County Auditor,Elections Office,"104 1st Street NW,",Ste 10,,Bowman,ND,58623-4342,(701) 523-3130,stivis@bowmancountynd.gov,(701) 523-4899
North Dakota,Towner,County Auditor,Elections Office,,,PO Box 603 ,Cando,ND,58324-0603,(701) 968-4340 Ext. 1,jmmorlock@nd.gov,(701) 968-4342
North Dakota,Foster,County Auditor,Elections Office,,,PO Box 104 ,Carrington,ND,58421-0104,(701) 652-2441,bradsolberg@nd.gov,(701) 652-2173
North Dakota,Grant,County Auditor,Elections Office,,,PO Box 227 ,Carson,ND,58529-0227,(701) 622-3275 Ext.,sarmeier@nd.gov,(701) 622-3005
North Dakota,Pembina,County Auditor,Elections Office,301 Dakota St W,Unit 1,,Cavalier,ND,58220-4100,(701) 265-4231,lschlitt@nd.gov,(701) 265-4876
North Dakota,Oliver,County Auditor,Elections Office,,,PO Box 188 ,Center,ND,58530-0188,(701) 794-8721,jhintz@nd.gov,(701) 794-3476
North Dakota,McKenzie,County Auditor,Elections Office,201 5th St NW,Ste 543,,Watford City,ND,58854,(701) 444-3616,ejohnsrud@co.mckenzie.nd.us,(701) 444-4113
North Dakota,Barnes,County Auditor,Elections Office,230 4th St NW,Room 202,,Valley City,ND,58072-2947,(701) 845-8500 Ext. 6666,bdidier@barnescounty.us,(701) 845-8548
North Dakota,Griggs,County Auditor,Elections Office,,,PO Box 511 ,Cooperstown,ND,58425-0511,(701) 797-3117,samantha.larson@griggscountynd.gov,(701) 797-3587
North Dakota,Divide,County Auditor,Elections Office,,,PO Box 49 ,Crosby,ND,58730-0049,(701) 965-6351,gjastrze@nd.gov,(701) 965-4370
North Dakota,Stark,County Auditor,Elections Office,,,PO Box 130 ,Dickinson,ND,58602-0130,(701) 456-7630,khaag@starkcountynd.gov,(701) 456-7634
North Dakota,Dickey,County Auditor,Elections Office,,,PO Box 215 ,Ellendale,ND,58436-0215,(701) 349-3249,wsheppard@nd.gov,(701) 349-4639
North Dakota,Cass,County Auditor,Elections Office,,,PO Box 2806 ,Fargo,ND,58108-2806,(701) 241-5600,montplaisirm@casscountynd.gov,(701) 241-5728
North Dakota,Wells,County Auditor,Elections Office,700 Railway St N #37 ,,,Fessenden,ND,58438,(701) 547-3521,jkrosbakken@nd.gov,(701) 547-3719
North Dakota,Steele,County Auditor,Elections Office,,,PO Box 275 ,Finley,ND,58230-0275,(701) 524-2110,ewigen@nd.gov,(701) 524-1715
North Dakota,Grand Forks,County Auditor,Elections Office,,,PO Box 5726,Grand Forks,ND,58206-5726,(701) 780-8200 Ext.,elections@gfcounty.org,(701) 780-8207
North Dakota,Sargent,County Auditor,Elections Office,355 Main St S,Ste 1,,Forman,ND,58032-4149,(701) 724-6241 Ext. 101,pam.maloney@co.sargent.nd.us,(701) 724-6244
North Dakota,Walsh,County Auditor,Elections Office,600 Cooper Ave ,,,Grafton,ND,58237-1535,(701) 352-2851,kmolde@nd.gov,(701) 352-3340
North Dakota,Adams,County Auditor,Elections Office,,,PO Box 589 ,Hettinger,ND,58639-0589,(701) 567-4363 Ext.,kfaller@nd.gov,(701) 567-2910
North Dakota,Traill,County Auditor,Elections Office,,,PO Box 429 ,Hillsboro,ND,58045-0429,(701) 636-4458,glenda.haugen@co.traill.nd.us,(701) 636-5418
North Dakota,Stutsman,County Auditor,Elections Office,511 2nd Ave. SE,Ste 102,,Jamestown,ND,58401-4298,(701) 252-9035 Ext.,nmeland@stutsmancounty.gov,(701) 251-6310
North Dakota,Ramsey,County Auditor,Elections Office,524 4th Avenue NE,Unit 6,,Devils Lake,ND,58301-2490,(701) 662-7025,kchristo@nd.gov,(701) 662-7049
North Dakota,Nelson,County Auditor,Elections Office,210 B Ave W,Ste 201,,Lakota,ND,58344-7410,(701) 247-2463 Ext.,jwigen@nd.gov,(701) 247-2754
North Dakota,LaMoure,County Auditor,Elections Office,,,PO Box 128 ,LaMoure,ND,58458-0128,(701) 883-5301,jan.hamlin@co.lamoure.nd.us,(701) 883-4514
North Dakota,Cavalier,County Auditor,Elections Office,901 3rd Street,Ste. 15,,Langdon,ND,58249-2457,(701) 256-2229,lgellner@nd.gov,(701) 256-2546
North Dakota,Emmons,County Auditor,Elections Office,,,PO Box 129 ,Linton,ND,58552-0129,(701) 254-4807,mohlhauser@nd.gov,(701) 254-4012
North Dakota,Ransom,County Auditor,Elections Office,,,PO Box 668 ,Lisbon,ND,58054-0668,(701) 683-6113,nicole.gentzkow@co.ransom.nd.us,(701) 683-5827
North Dakota,Morton,County Auditor,Elections Office,210 2nd Ave. NW ,,,Mandan,ND,58554-3158,(701) 667-3300 Ext.,dawn.rhone@mortonnd.org,(701) 667-3380
North Dakota,Dunn,County Auditor,Elections Office,205 Owens Street ,,,Manning,ND,58642-0105,(701) 573-4448,tracey.dolezal@dunncountynd.org,(701) 573-4323
North Dakota,Sheridan,County Auditor,Elections Office,,,PO Box 439 ,McClusky,ND,58463-0439,(701) 363-2205,smurray@nd.gov,(701) 363-2953
North Dakota,Billings,County Auditor,Elections Office,,,PO Box 168 ,Medora,ND,58645-0168,(701) 623-4377,mdlamb@nd.gov,(701) 623-4761
North Dakota,Benson,County Auditor,Elections Office,,,PO Box 206 ,Minnewaukan,ND,58351-0206,(701) 473-5340,bserickson@nd.gov,(701) 473-5571
North Dakota,Ward,County Auditor,Elections Office,,,PO Box 5005 ,Minot,ND,58702-5005,(701) 857-6420 Ext.,devra.smestad@wardnd.com,(701) 857-6424
North Dakota,Renville,County Auditor,Elections Office,,,PO Box 68 ,Mohall,ND,58761-0068,(701) 756-6301,lpollman@nd.gov,(701) 756-7158
North Dakota,Hettinger,County Auditor,Elections Office,336 Pacific Avenue ,,,Mott,ND,58646,(701) 824-2515,jerschmidt@nd.gov,(701) 824-2717
North Dakota,Logan,County Auditor,Elections Office,301 Broadway ,,,Napoleon,ND,58561-7010,(701) 754-2425,bkfischer@nd.gov,(701) 754-2280
North Dakota,Eddy,County Auditor,Elections Office,524 Central Ave,Ste 201,,New Rockford,ND,58356-1652,(701) 947-2434 Ext. 2020,pawilliams@nd.gov,(701) 947-2279
North Dakota,Rolette,County Auditor,Elections Office,,,PO Box 939 ,Rolla,ND,58367-0939,(701) 477-5665,vmccloud@nd.gov,(701) 477-6339
North Dakota,Pierce,County Auditor,Elections Office,240 2nd Street SE,Ste. 6,,Rugby,ND,58368-1897,(701) 776-5225 Ext. 2100,kfursath@nd.gov,(701) 776-6942
North Dakota,Mountrail,County Auditor,Elections Office,,,PO Box 69 ,Stanley,ND,58784-0069,(701) 628-2145,stephp@co.mountrail.nd.us,(701) 628-2276
North Dakota,Mercer,County Auditor,Elections Office,,,PO Box 39 ,Stanton,ND,58571-0039,(701) 745-3292,sbrost@nd.gov,(701) 745-3793
North Dakota,Kidder,County Auditor,Elections Office,,,PO Box 167 ,Steele,ND,58482-0167,(701) 475-4547,jschoenhard@nd.gov,(701) 475-2202
North Dakota,McHenry,County Auditor,Elections Office,407 Main Street S,Room 201,,Towner,ND,58788-4048,(701) 537-5724,dcarpenter@nd.gov,(701) 537-5969
North Dakota,Richland,County Auditor,Elections Office,418 2nd Ave. N ,,,Wahpeton,ND,58075-4400,(701) 642-7700,lhage@co.richland.nd.us,(701) 642-7701
North Dakota,McLean,County Auditor,Elections Office,,,PO Box 1108 ,Washburn,ND,58577,(701) 462-8541 Ext. 825,baknutson@nd.gov,(701) 462-3542
North Dakota,Williams,County Auditor,Elections Office,,,PO Box 2047 ,Williston,ND,58802-2047,(701) 577-4500,bethi@co.williams.nd.us,(701) 577-4510
North Dakota,Sioux,County Auditor,Elections Office,,,PO Box L ,Fort Yates,ND,58538,(701) 854-3481 Ext.,cllecompte@nd.gov,(701) 854-3854