state,county,location_type,location_name,address_1,address_2,city,state_2,zip,phone,county_website_url,email,fax,hours
Virginia,ACCOMACK COUNTY,Elections Office,Accomack County Voter Registration,24387 Joynes Neck Rd,"124 N. Main Street , 2nd Floor",Accomac,VA,23301,757-787-2935,,govote@co.accomack.va.us,757-787-4823,Monday:08:30-17:00;Tuesday:08:30-17:00;Wednesday:08:30-17:00;Thursday:08:30-17:00;Friday:08:30-17:00
Virginia,ALBEMARLE COUNTY,Elections Office,Albemarle County Voter Registration,1600 5th St,,Charlottesville,VA,22902,434-972-4173,https://www.albemarle.org/government/elections,VoterRegistration@albemarle.org,434-972-4178,Monday:08:30-17:00;Tuesday:08:30-17:00;Wednesday:08:30-17:00;Thursday:08:30-17:00;Friday:08:30-17:00
Virginia,ALEXANDRIA CITY,Elections Office,City of Alexandria,132 N Royal St ,Ste 100,Alexandria,VA,22314,703-746-4050,http://www.alexandriavoter.org,voters@alexandriava.gov,703-838-6449,Monday:08:00-17:00;Tuesday:08:00-17:00;Wednesday:08:00-17:00;Thursday:08:00-17:00;Friday:08:00-17:00
Virginia,ALLEGHANY COUNTY,Elections Office,Alleghany County Voter Registration,110 Rosedale Ave ,Ste D,Covington,VA,24426,540-965-1690,http://www.alleghanycounty.us/,govote5@ntelos.net,540-965-1692,Monday:09:00-17:00;Tuesday:09:00-17:00;Wednesday:09:00-17:00;Thursday:09:00-17:00;Friday:09:00-17:00
Virginia,AMELIA COUNTY,Elections Office,Amelia County General Registrar's Office,9127 Washington St,,Amelia Court House,VA,23002,804-561-3460,,govote007@tds.net,804-561-3490,Monday:08:30-16:30;Tuesday:08:30-16:30;Wednesday:08:30-16:30;Thursday:08:30-16:30;Friday:08:30-16:30
Virginia,AMHERST COUNTY,Elections Office,Dept of Elections & Voter Registration Office,113 Taylor St,,Amherst,VA,24521,434-946-9315,,dbrown@countyofamherst.com,434-946-9345,Monday:08:30-16:30;Tuesday:08:30-16:30;Wednesday:08:30-16:30;Thursday:08:30-16:30;Friday:08:30-16:30
Virginia,APPOMATTOX COUNTY,Elections Office,Appomattox,367 Virginia Ave,,Appomattox,VA,24522,434-352-5302,,govote011@appomattoxcountyva.gov,434-352-4409,Monday:08:30-16:30;Tuesday:08:30-16:30;Wednesday:08:30-16:30;Thursday:08:30-16:30;Friday:08:30-16:30
Virginia,ARLINGTON COUNTY,Elections Office,Arlington County Elections,2100 Clarendon Blvd,Ste 320,Arlington,VA,22201,703-228-3456,http://vote.arlingtonva.us,voters@arlingtonva.us,703-228-3659,Monday:08:30-16:30;Tuesday:08:30-16:30;Wednesday:08:30-16:30;Thursday:08:30-16:30;Friday:08:30-16:30
Virginia,AUGUSTA COUNTY,Elections Office,Augusta County Office of Voter Registration,18 Government Center Ln,,Verona,VA,24482,540-245-5656,,registrar@co.augusta.va.us,540-245-5037,Monday:08:00-17:00;Tuesday:08:00-17:00;Wednesday:08:00-17:00;Thursday:08:00-17:00;Friday:08:00-17:00
Virginia,BATH COUNTY,Elections Office,BATH COUNTY GENERAL REGISTRAR,65 Courthouse Hill Rd,Rm 103,Warm Springs,VA,24484,540-839-7266,http://www.bathcountyva.org,bathvoter@tds.net,540-839-7277,Monday:08:30-16:30;Tuesday:08:30-16:30;Wednesday:08:30-16:30;Thursday:08:30-16:30;Friday:08:30-16:30
Virginia,BEDFORD COUNTY,Elections Office,Bedford County Office of Elections,321 N Bridge St,Ste 200,Bedford,VA,24523,540-586-7649,https://www.bedfordcountyva.gov/departments/voter-information,b.gunter@bedfordcountyva.gov,540-586-8358,Monday:09:00-17:00;Tuesday:09:00-17:00;Wednesday:09:00-17:00;Thursday:09:00-17:00;Friday:09:00-17:00
Virginia,BLAND COUNTY,Elections Office,Bland County Voter Registration and Elections Office,20 Fairground ST,,Bland,VA,24315,276-688-4441,http://www.blandcountyva.gov/departments/voter-registration/,govote021@embarqmail.com,276-688-2135,Monday:08:00-16:00;Tuesday:08:00-16:00;Wednesday:08:00-16:00;Thursday:08:00-16:00;Friday:08:00-16:00
Virginia,BOTETOURT COUNTY,Elections Office,Dept of Elections & Voter Registration,2 E Main St,,Fincastle,VA,24090,540-928-2120,http://botetourtva.gov/your-government/voter-information/,tclark@botetourtva.gov,540-473-8657,Monday:08:30-16:30;Tuesday:08:30-16:30;Wednesday:08:30-16:30;Thursday:08:30-16:30;Friday:08:30-16:30
Virginia,BRISTOL CITY,Elections Office,Bristol Elections and Voter Registration,300 Lee St ,Ste 101,Bristol,VA,24201,276-645-7318,https://www.bristolva.org/,vote@bristolva.org,276-645-7331,Monday:08:00-17:00;Tuesday:08:00-17:00;Wednesday:08:00-17:00;Thursday:08:00-17:00;Friday:08:00-17:00
Virginia,BRUNSWICK COUNTY,Elections Office,Brunswick County Registrar's Office,100 Tobacco St ,Rm 103,Lawrenceville,VA,23868,434-848-4414,,govote025@brunswickco.com,434-848-9276,Monday:08:30-04:30;Tuesday:08:30-04:30;Wednesday:08:30-04:30;Thursday:08:30-04:30;Friday:08:30-04:30
Virginia,BUCHANAN COUNTY,Elections Office,Voter Registration and Elections,23784 Riverside Dr,,Grundy,VA,24614,276-935-6534,,registrar@buchanancounty-va.gov,276-935-4320,Monday:08:00-16:00;Tuesday:08:00-16:00;Wednesday:08:00-16:00;Thursday:08:00-16:00;Friday:08:00-16:00
Virginia,BUCKINGHAM COUNTY,Elections Office,County of Buckingham,13360 W James Anderson Hwy,,Buckingham,VA,23921,434-969-4304,,elections@buckinghamcounty.virginia.gov,434-969-2060,Monday:08:30-16:30;Tuesday:08:30-16:30;Wednesday:08:30-16:30;Thursday:08:30-16:30;Friday:08:30-16:30
Virginia,BUENA VISTA CITY,Elections Office,Office of the Registrar City of Buena Vista,2039 Sycamore Ave,,Buena Vista,VA,24416,540-261-8605,,estaton@bvcity.org,540-261-8618,Monday:09:00-17:00;Tuesday:09:00-17:00;Wednesday:09:00-17:00;Thursday:09:00-17:00;Friday:09:00-17:00
Virginia,CAMPBELL COUNTY,Elections Office,Campbell County Department of Elections,41 Court House Ln,,Rustburg,VA,24588,434-332-9579,http://www.co.campbell.va.us/depts/registrar/Pages/index.aspx,klmartin@co.campbell.va.us,434-332-9689,Monday:08:30-17:00;Tuesday:08:30-17:00;Wednesday:08:30-17:00;Thursday:08:30-17:00;Friday:08:30-17:00
Virginia,CAROLINE COUNTY,Elections Office,Caroline County General Registrars Office,212 N Main St,,Bowling Green,VA,22427,804-633-9083,http://co.caroline.va.us,kmcvay@co.caroline.va.us,804-633-0362,Monday:09:00-17:00;Tuesday:09:00-17:00;Wednesday:09:00-17:00;Thursday:09:00-17:00;Friday:09:00-05:00
Virginia,CARROLL COUNTY,Elections Office,VOTER REGISTRATION OFFICE,605 Pine St ,Ste 3,Hillsville,VA,24343,276-730-3035,http://carrollcountyva.org/govt_template/voter_registration/,kimberly.cloud@carrollcountyva.gov,276-730-3040,Monday:08:00-17:00;Tuesday:08:00-17:00;Wednesday:08:00-17:00;Thursday:08:00-17:00;Friday:08:00-17:00
Virginia,CHARLES CITY COUNTY,Elections Office,Charles City County General Registrar Office,10900 Courthouse Rd,440 Market Street,Charles City,VA,23030,804-652-4606,http://www.co.charles-city.va.us/index.asp?,cbarneycastle@co.charles-city.va.us,804-829-6823,Monday:08:30-16:30;Tuesday:08:30-16:30;Wednesday:08:30-16:30;Thursday:08:30-16:30;Friday:08:30-16:30
Virginia,CHARLOTTE COUNTY,Elections Office,Charlotte County Voter Registration Office,420 Thomas Jefferson HWY,,Charlotte Court House,VA,23923,434-542-5856,,charlottecovotes037@gmail.com,434-542-4168,Monday:08:30-16:30;Tuesday:08:30-16:30;Wednesday:08:30-16:30;Thursday:08:30-16:30;Friday:08:30-16:30
Virginia,CHARLOTTESVILLE CITY,Elections Office,Charlottesville City Voter Registration & Elections,120 7th ST NE,,Charlottesville,VA,22902,434-970-3250,http://www.charlottesville.gov/vote,vote@charlottesville.gov,434-970-3249,Monday:08:30-16:30;Tuesday:08:30-16:30;Wednesday:08:30-16:30;Thursday:08:30-16:30;Friday:08:30-16:30
Virginia,CHESAPEAKE CITY,Elections Office,Office of the General Registrar,411 Cedar Rd,,Chesapeake,VA,23322,757-277-9797,http://www.cityofchesapeake.net/government/City-Departments/Departments/Voter-Registrar.htm,mlpinkerman@cityofchesapeake.net,757-547-5402,Monday:08:00-17:00;Tuesday:08:00-17:00;Wednesday:08:00-17:00;Thursday:08:00-17:00;Friday:08:00-17:00
Virginia,CHESTERFIELD COUNTY,Elections Office,Chesterfield Registrar's Office,9848 Lori Rd,,Chesterfield,VA,23832,804-748-1471,https://www.chesterfield.gov/registrar,registrar@chesterfield.gov,804-751-0822,Monday:08:30-17:00;Tuesday:08:30-17:00;Wednesday:08:30-17:00;Thursday:08:30-17:00;Friday:08:30-17:00
Virginia,CLARKE COUNTY,Elections Office,Clarke County Office of Elections,101 Chalmers Ct,,Berryville,VA,22611,540-955-5168,https://www.clarkecounty.gov/government/voter-registration-elections,vote@clarkecounty.gov,540-955-5169,Monday:08:30-16:30;Tuesday:08:30-16:30;Wednesday:08:30-16:30;Thursday:08:30-16:30;Friday:08:30-16:30
Virginia,COLONIAL HEIGHTS CITY,Elections Office,Colonial Heights City General Registrar,201 James Ave,,Colonial Heights,VA,23834,804-520-9277,http://www.colonialheightsva.gov,schottj@colonialheightsva.gov,804-520-9209,Monday:08:30-17:00;Tuesday:08:30-17:00;Wednesday:08:30-17:00;Thursday:08:30-17:00;Friday:08:30-17:00
Virginia,COVINGTON CITY,Elections Office,Voter Registration,515 E Pine St,,Covington,VA,24426,540-965-6380,,govote580@ntelos.net,540-965-6362,Monday:09:00-17:00;Tuesday:09:00-17:00;Wednesday:09:00-17:00;Thursday:09:00-17:00;Friday:09:00-05:00
Virginia,CRAIG COUNTY,Elections Office,Craig County Voter Registration,155 Main St,,New Castle,VA,24127,540-864-6190,,vote@craigcountyva.gov,540-864-5551,Monday:08:00-16:00;Tuesday:08:00-16:00;Wednesday:08:00-16:00;Thursday:08:00-16:00;Friday:08:00-16:00
Virginia,CULPEPER COUNTY,Elections Office,Culpeper County General Registrar's Office,151 N Main St ,Ste 301,Culpeper,VA,22701,540-825-0652,https://www.voteinculpeper.info,registrar@culpepercounty.gov,540-825-8454,Monday:08:30-16:30;Tuesday:08:30-16:30;Wednesday:08:30-16:30;Thursday:08:30-16:30;Friday:08:30-16:30
Virginia,CUMBERLAND COUNTY,Elections Office,Cumberland County Voter Registration Office,1487 Anderson Hwy,,Cumberland,VA,23040,804-492-4504,,mwatson@cumberlandcounty.virginia.gov,804-492-3571,Monday:08:30-16:30;Tuesday:08:30-16:30;Wednesday:08:30-16:30;Thursday:08:30-16:30;Friday:08:30-04:30
Virginia,DANVILLE CITY,Elections Office,Voter Registration and Electoral Board Office,530 Main St ,Ste 100,Danville,VA,24541,434-799-6560,http://www.danvilleva.gov/284/Voter-Registration-Registrar,govote@danvilleva.gov,434-797-8987,Monday:09:00-17:00;Tuesday:09:00-17:00;Wednesday:09:00-17:00;Thursday:09:00-17:00;Friday:09:00-17:00
Virginia,DICKENSON COUNTY,Elections Office,Office of Voter Registration and Elections,818 Happy Valley Dr ,Rm 138,Clintwood,VA,24228,276-926-1620,https://www.dickensonva.org,rchildress@dickensonva.org,276-302-0124,Monday:08:30-16:30;Tuesday:08:30-16:30;Wednesday:08:30-16:30;Thursday:08:30-16:30;Friday:08:30-16:30
Virginia,DINWIDDIE COUNTY,Elections Office,DINWIDDIE COUNTY,14016 Boydton Plank Rd,,Dinwiddie,VA,23841,804-469-4500 2113,,lbrandon@dinwiddieva.us,804-469-4544,Monday:08:30-16:30;Tuesday:08:30-16:30;Wednesday:08:30-16:30;Thursday:08:30-16:30;Friday:08:30-16:30
Virginia,EMPORIA CITY,Elections Office,Voter Registration Office,201 S Main St,,Emporia,VA,23847,434-634-9533,,awall@ci.emporia.va.us,434-634-0003,Monday:08:00-17:00;Tuesday:08:00-17:00;Wednesday:08:00-17:00;Thursday:08:00-17:00;Friday:08:00-17:00
Virginia,ESSEX COUNTY,Elections Office,Essex County General Registrar's Office,205 S Cross St ,Suite B,Tappahannock,VA,22560,804-443-4611,http://www.essex-virginia.org/,govote@essex-virginia.org,804-443-4157,Monday:08:30-16:30;Tuesday:08:30-16:30;Wednesday:08:30-16:30;Thursday:08:30-16:30;Friday:08:30-16:30
Virginia,FAIRFAX CITY,Elections Office,City of Fairfax General Registrar's Office,10455 Armstrong St,,Fairfax,VA,22030,703-385-7890,http://www.fairfaxva.gov/vote,Registrar@Fairfaxva.gov,703-591-8364,Monday:08:30-17:00;Tuesday:08:30-17:00;Wednesday:08:30-17:00;Thursday:08:30-17:00;Friday:08:30-17:00
Virginia,FAIRFAX COUNTY,Elections Office,Fairfax County Office of Elections,12000 Government Center Pkwy,Ste 323,Fairfax,VA,22035,703-222-0776,http://www.fairfaxcounty.gov/elections,voting@fairfaxcounty.gov,703-324-2205,Monday:08:00-16:30;Tuesday:08:00-16:30;Wednesday:08:00-16:30;Thursday:08:00-16:30;Friday:08:00-16:30
Virginia,FALLS CHURCH CITY,Elections Office,Office of Voter Registration and Elections,300 Park Ave ,Rm 206C,Falls Church,VA,22046,703-248-5085,http://www.fallschurchva.gov/vote,vote@fallschurchva.gov,703-248-5204,Monday:08:00-17:00;Tuesday:08:00-17:00;Wednesday:08:00-17:00;Thursday:08:00-17:00;Friday:08:00-17:00
Virginia,FAUQUIER COUNTY,Elections Office,County of Fauquier,528 Waterloo Rd ,Ste 200,Warrenton,VA,20186,540-422-8290,http://vote.fauquiercounty.gov,alex.ables@fauquiercounty.gov,540-422-8291,Monday:08:00-16:30;Tuesday:08:00-16:30;Wednesday:08:00-16:30;Thursday:08:00-16:30;Friday:08:00-16:30
Virginia,FLOYD COUNTY,Elections Office,Floyd County General Registrar's Office,100 E Main St ,Rm 302,Floyd,VA,24091,540-745-9350,https://www.floydcova.org/voter-registrar/,registrar@floydcova.org,540-745-9390,Monday:09:00-17:00;Tuesday:09:00-17:00;Wednesday:09:00-17:00;Thursday:09:00-17:00;Friday:09:00-17:00
Virginia,FLUVANNA COUNTY,Elections Office,Fluvanna County Office of Elections,265 Turkeysag Trl ,Ste 115,Palmyra,VA,22963,434-589-3593,,jpace@fluvannacounty.org,434-589-6383,Monday:08:30-17:00;Tuesday:08:30-17:00;Wednesday:08:30-17:00;Thursday:08:30-17:00;Friday:08:30-17:00
Virginia,FRANKLIN CITY,Elections Office,Franklin City Voter Registration and Elections,100 S Main St,,Franklin,VA,23851,757-562-8545,http://www.franklinva.com/government/departments/voter-registrar/,jmaynard@franklinva.com,757-562-8779,Monday:08:30-17:00;Tuesday:08:30-17:00;Wednesday:08:30-17:00;Thursday:08:30-17:00;Friday:08:30-17:00
Virginia,FRANKLIN COUNTY,Elections Office,Franklin County General Registrar's Office,1255 Franklin St # ,SUITE106,Rocky Mount,VA,24151,540-483-3025,,kay.chitwood@franklincountyva.gov,540-483-6619,Monday:08:30-17:00;Tuesday:08:30-17:00;Wednesday:08:30-17:00;Thursday:08:30-17:00;Friday:08:30-17:00
Virginia,FREDERICK COUNTY,Elections Office,Frederick County Voter Registration Office,107 N Kent St ,Ste 102,Winchester,VA,22601,540-665-5660,http://www.fcva.us/,rich.venskoske@fcva.us,540-665-8976,Monday:08:30-16:30;Tuesday:08:30-16:30;Wednesday:08:30-16:30;Thursday:08:30-16:30;Friday:08:30-16:30
Virginia,FREDERICKSBURG CITY,Elections Office,Voter Registration & Elections,601 Caroline St ,Ste 500A,Fredericksburg,VA,22401,540-372-1030,https://www.fredericksburgva.gov/534/Voter-Registrar,vote@vote.fredericksburgva.gov,540-373-8381,Monday:08:30-16:30;Tuesday:08:30-16:30;Wednesday:08:30-16:30;Thursday:08:30-16:30;Friday:08:30-16:30
Virginia,GALAX CITY,Elections Office,Galax City Voter Registration,111 E Grayson St ,Rm 102,Galax,VA,24333,276-236-7509,,sreavis@galaxva.com,276-236-2889,Monday:08:30-17:00;Tuesday:08:30-17:00;Wednesday:08:30-17:00;Thursday:08:30-17:00;Friday:08:30-17:00
Virginia,GILES COUNTY,Elections Office,Giles County General Registrar's Office,201 N Main St ,Ste 1,Pearisburg,VA,24134,540-921-2802,http://www.virginiasmtnplayground.com/voter-registration/,govote071@gilescounty.org,540-921-3176,Monday:09:00-17:00;Tuesday:09:00-17:00;Wednesday:09:00-17:00;Thursday:09:00-17:00;Friday:09:00-17:00
Virginia,GLOUCESTER COUNTY,Elections Office,Gloucester County Office of Elections and Voter Registration,6467 Main St ,Bldg ONE,Gloucester,VA,23061,804-693-3659,https://www.gloucesterva.info/349/Elections-and-Voter-Registration,bamorgan@gloucesterva.info,804-824-2465,Monday:08:30-16:30;Tuesday:08:30-16:30;Wednesday:08:30-16:30;Thursday:08:30-16:30;Friday:08:30-16:30
Virginia,GOOCHLAND COUNTY,Elections Office,Goochland County Office of the General Registrar,1876 Sandy Hook Rd,,Goochland,VA,23063,804-556-5803,https://www.goochlandva.us/359/Voter-Registration-Elections,Rmulligan@goochlandva.us,804-556-6323,Monday:08:30-16:30;Tuesday:08:30-16:30;Wednesday:08:30-16:30;Thursday:08:30-16:30;Friday:08:30-16:30
Virginia,GRAYSON COUNTY,Elections Office,Voter Registration,129 Davis ST ,Rm 101,Independence,VA,24348,276-773-2842,,cwingate@graysoncountyva.gov,276-773-8042,Monday:08:00-16:30;Tuesday:08:00-16:30;Wednesday:08:00-16:30;Thursday:08:00-16:30;Friday:08:00-16:30
Virginia,GREENE COUNTY,Elections Office,Greene County General Registrar's Office,32 Stanard St,,Stanardsville,VA,22973,434-985-5213,,jlewis-fowler@gcva.us,434-985-2369,Monday:08:30-17:00;Tuesday:08:30-17:00;Wednesday:08:30-17:00;Thursday:08:30-17:00;Friday:08:30-17:00
Virginia,GREENSVILLE COUNTY,Elections Office,Greensville County Registrar's Office,1781 Greensville County Cir,,Emporia,VA,23847,434-348-4228,,sconwell@greensvillecountyva.gov,434-348-4257,Monday:09:00-17:00;Tuesday:09:00-17:00;Wednesday:09:00-17:00;Thursday:09:00-17:00;Friday:09:00-17:00
Virginia,HALIFAX COUNTY,Elections Office,Halifax County Voter Registrar's Office,1030 Mary Bethune St ,Ste 102,Halifax,VA,24558,434-476-3322,,hharding@co.halifax.va.us,434-476-1045,Monday:08:30-16:30;Tuesday:08:30-16:30;Wednesday:08:30-16:30;Thursday:08:30-16:30;Friday:08:30-16:30
Virginia,HAMPTON CITY,Elections Office,City of Hampton General Registrar's Office,1919 Commerce Dr ,Ste 280,Hampton,VA,23666,757-727-6218,http://www.hampton.gov/voter,tmorgan@hampton.gov,757-727-6084,Monday:08:30-17:00;Tuesday:08:30-17:00;Wednesday:08:30-17:00;Thursday:08:30-17:00;Friday:08:30-17:00
Virginia,HANOVER COUNTY,Elections Office,Hanover Co. Voter Registration & Elections,7497 County Complex Rd ,Rm 119,Hanover,VA,23069,804-365-6080,https://www.hanovercounty.gov/365/Voting,HanoverVoting@hanovercounty.gov,804-365-6078,Monday:08:30-17:00;Tuesday:08:30-17:00;Wednesday:08:30-17:00;Thursday:08:30-17:00;Friday:08:30-17:00
Virginia,HARRISONBURG CITY,Elections Office,City of Harrisonburg Voter Registration Office,409 S Main St,,Harrisonburg,VA,22801,540-432-7707,http://www.harrisonburgva.gov/,mark.finks@HarrisonburgVA.gov,540-432-7784,Monday:08:00-17:00;Tuesday:08:00-17:00;Wednesday:08:00-17:00;Thursday:08:00-17:00;Friday:08:00-17:00
Virginia,HENRICO COUNTY,Elections Office,Office of Voter Registration and Elections,4305 E PARHAM RD,,HENRICO,VA,23228,804-501-4347,http://henrico.us/registrar/,coa@henrico.us,804-501-5081,Monday:08:00-16:30;Tuesday:08:00-16:30;Wednesday:08:00-16:30;Thursday:08:00-16:30;Friday:08:00-16:30
Virginia,HENRY COUNTY,Elections Office,Henry County Voter Registration/Electoral Board Office,3300 Kings Mountain Rd ,Rm 103,Martinsville,VA,24112,276-638-5108,http://www.henrycountyva.gov/elections---registrar,estone@co.henry.va.us,276-638-8278,Monday:08:30-17:00;Tuesday:08:30-17:00;Wednesday:08:30-17:00;Thursday:08:30-17:00;Friday:08:30-17:00
Virginia,HIGHLAND COUNTY,Elections Office,Highland County Voter Registration Office,97 Highland Center DR,,Monterey,VA,24465,540-468-2013,,govote091@htcnet.org,540-468-2012,Monday:08:30-16:30;Tuesday:08:30-16:30;Wednesday:08:30-16:30;Thursday:08:30-16:30;Friday:08:30-16:30
Virginia,HOPEWELL CITY,Elections Office,Voter Registration Office,106 N Main St,,Hopewell,VA,23860,804-541-2232 630,https://www.hopewellva.gov,vote@hopewellva.gov,804-452-5828,Monday:08:30-17:00;Tuesday:08:30-17:00;Wednesday:08:30-17:00;Thursday:08:30-17:00;Friday:08:30-17:00
Virginia,ISLE OF WIGHT COUNTY,Elections Office,Voter Registration & Elections,17106 Monument Circle,,Isle of Wight,VA,23397,757-365-6230,https://www.co.isle-of-wight.va.us/our_services/voter_registration/voter_information.php,lbetterton@isleofwightus.net,757-357-5699,Monday:08:30-17:00;Tuesday:08:30-17:00;Wednesday:08:30-17:00;Thursday:08:30-17:00;Friday:08:30-17:00
Virginia,JAMES CITY COUNTY,Elections Office,James City County Voter Registration and Elections,5300 Palmer Ln,,Williamsburg,VA,23188,757-259-4949,http://www.jamescitycountyva.gov/vote,vote@jamescitycountyva.gov,757-259-4945,Monday:08:00-17:00;Tuesday:08:00-17:00;Wednesday:08:00-17:00;Thursday:08:00-17:00;Friday:08:00-17:00
Virginia,KING & QUEEN COUNTY,Elections Office,King and Queen County,232 Allens Cir,,King And Queen Court House,VA,23085,804-785-5980,,dklausen@kingandqueenco.net,804-785-5792,Monday:08:30-16:30;Tuesday:08:30-16:30;Wednesday:08:30-16:30;Thursday:08:30-16:30;Friday:08:30-16:30
Virginia,KING GEORGE COUNTY,Elections Office,King George County Registrar,10459 Courthouse Dr ,Ste 102,King George,VA,22485,540-775-9186,,lgump@co.kinggeorge.state.va.us,540-775-4852,Monday:08:00-16:30;Tuesday:08:00-16:30;Wednesday:08:00-16:30;Thursday:08:00-16:30;Friday:08:00-16:30
Virginia,KING WILLIAM COUNTY,Elections Office,King William County General Registrar's Office,180 Horse Landing Rd ,# 1,King William,VA,23086,804-769-4952,,gregistrar@kingwilliamcounty.us,804-769-4920,Monday:08:30-16:30;Tuesday:08:30-16:30;Wednesday:08:30-16:30;Thursday:08:30-16:30;Friday:08:30-16:30
Virginia,LANCASTER COUNTY,Elections Office,Lancaster County Voter Registration,8311 Mary Ball Rd,,Lancaster,VA,22503,804-462-5277,,sjett@lancova.com,804-462-5228,Monday:08:30-16:30;Tuesday:08:30-16:30;Wednesday:08:30-16:30;Thursday:08:30-16:30;Friday:08:30-16:30
Virginia,LEE COUNTY,Elections Office,Voter Registration Office,133 School Board PL,,Jonesville,VA,24263,276-346-7780,,govote105@leecova.org,276-346-0119,Monday:08:30-16:30;Tuesday:08:30-16:30;Wednesday:08:30-16:30;Thursday:08:30-16:30;Friday:08:30-16:30
Virginia,LEXINGTON CITY,Elections Office,Office of the General Registrar,300 E Washington St,,Lexington,VA,24450,540-461-0535,http://www.lexingtonva.gov,jyowell@lexingtonva.gov,540-463-5310,Monday:09:00-17:00;Tuesday:09:00-17:00;Wednesday:09:00-17:00;Thursday:09:00-17:00;Friday:09:00-17:00
Virginia,LOUDOUN COUNTY,Elections Office,Office of Elections,750 Miller Dr SE ,Ste C,Leesburg,VA,20175,703-777-0380,http://loudoun.gov/vote,vote@loudoun.gov,703-777-0622,Monday:08:30-17:00;Tuesday:08:30-17:00;Wednesday:08:30-17:00;Thursday:08:30-17:00;Friday:08:30-17:00
Virginia,LOUISA COUNTY,Elections Office,Louisa County General Registrar's Office,1 Woolfolk Ave,,Louisa,VA,23093,540-967-3427,,cwatkins@louisa.org,540-967-3492,Monday:08:30-16:30;Tuesday:08:30-16:30;Wednesday:08:30-16:30;Thursday:08:30-16:30;Friday:08:30-16:30
Virginia,LUNENBURG COUNTY,Elections Office,Voter Registration,160 Courthouse Sq,,Lunenburg,VA,23952,434-696-3071,,cparsons@lunenburgva.net,434-696-3952,Monday:09:00-17:00;Tuesday:09:00-17:00;Wednesday:09:00-17:00;Thursday:09:00-17:00;Friday:09:00-17:00
Virginia,LYNCHBURG CITY,Elections Office,Registrar's Office,825 Kemper St,,Lynchburg,VA,24501,434-477-5999,http://www.lynchburgva.gov/registrars-office,registrar@lynchburgva.gov,434-947-2798,Monday:09:00-17:00;Tuesday:09:00-17:00;Wednesday:09:00-17:00;Thursday:09:00-17:00;Friday:09:00-17:00
Virginia,MADISON COUNTY,Elections Office,Madison County Voter Registration Office,302 Thrift Rd,,Madison,VA,22727,540-948-6533,https://www.madisonco.virginia.gov/registrar,registrar@madisonco.virginia.gov,,Monday:08:30-16:30;Tuesday:08:30-16:30;Wednesday:08:30-16:30;Thursday:08:30-16:30;Friday:08:30-16:30
Virginia,MANASSAS CITY,Elections Office,City of Manassas Voter Registration and Elections Dept,9025 Center St,,Manassas,VA,20110,703-257-8230,http://www.manassascity.org/vote,voterregistration@ci.manassas.va.us,703-257-0080,Monday:08:30-17:00;Tuesday:08:30-17:00;Wednesday:08:30-17:00;Thursday:08:30-17:00;Friday:08:30-17:00
Virginia,MANASSAS PARK CITY,Elections Office,Voter Registration,1 Park Center Ct,,Manassas Park,VA,20111,703-335-8806,,registrars@manassasparkva.gov,703-335-9042,Monday:08:30-16:30;Tuesday:08:30-16:30;Wednesday:08:30-16:30;Thursday:08:30-16:30;Friday:08:30-16:30
Virginia,MARTINSVILLE CITY,Elections Office,Martinsville City,55 W Church St ,Rm 122,Martinsville,VA,24112,276-403-5122,,cbarbour@ci.martinsville.va.us,276-403-5258,Monday:08:30-17:00;Tuesday:08:30-17:00;Wednesday:08:30-17:00;Thursday:08:30-17:00;Friday:08:30-17:00
Virginia,MATHEWS COUNTY,Elections Office,Mathews County Voter Registration Office,50 Brickbat RD,,Mathews,VA,23109,804-725-3200,,cfaulkner@mathewscountyva.gov,804-725-5786,Monday:08:30-16:30;Tuesday:08:30-16:30;Wednesday:08:30-16:30;Thursday:08:30-16:30;Friday:08:30-16:30
Virginia,MECKLENBURG COUNTY,Elections Office,Mecklenburg County General Registrar,439 Madison St,,Boydton,VA,23917,434-738-6191 4313,http://www.mecklenburgelections.com,mecklenburgelections@gmail.com,434-738-6104,Monday:08:30-16:30;Tuesday:08:30-16:30;Wednesday:08:30-16:30;Thursday:08:30-16:30;Friday:08:30-16:30
Virginia,MIDDLESEX COUNTY,Elections Office,Middlesex County,105 BOWDEN ST,,SALUDA,VA,23149,804-758-4420,,govote119@co.middlesex.va.us,804-758-3950,Monday:08:30-16:30;Tuesday:08:30-16:30;Wednesday:08:30-16:30;Thursday:08:30-16:30;Friday:08:30-16:30
Virginia,MONTGOMERY COUNTY,Elections Office,Director of Elections & General Registrar,755 Roanoke St ,Ste 1F,Christiansburg,VA,24073,540-382-5741,,govote121@montgomerycountyva.gov,540-381-6811,Monday:08:30-17:00;Tuesday:08:30-17:00;Wednesday:08:30-17:00;Thursday:08:30-17:00;Friday:08:30-17:00
Virginia,NELSON COUNTY,Elections Office,Nelson County General Registrar's Office,571 Front ST,,Lovingston,VA,22949,434-263-7190,http://www.nelsoncounty-va.gov/government/registrar/,registrar@nelsoncounty.org,434-263-8601,Monday:09:00-17:00;Tuesday:09:00-17:00;Wednesday:09:00-17:00;Thursday:09:00-17:00;Friday:09:00-17:00
Virginia,NEW KENT COUNTY,Elections Office,NEW KENT COUNTY GENERAL REGISTRAR,7911 COURTHOUSE WAY ,400,NEW KENT,VA,23124,804-966-9699,https://www.co.new-kent.va.us,kmbartlett@newkent-va.us,804-966-8536,Monday:01:08-16:30;Tuesday:01:08-16:30;Wednesday:01:08-16:30;Thursday:01:08-16:30;Friday:01:08-16:30
Virginia,NEWPORT NEWS CITY,Elections Office,Voter Registration,2400 Washington Ave,,Newport News,VA,23607,757-926-8683,,lewisvv@nnva.gov,757-926-3653,Monday:08:00-17:00;Tuesday:08:00-17:00;Wednesday:08:00-17:00;Thursday:08:00-17:00;Friday:08:00-17:00
Virginia,NORFOLK CITY,Elections Office,Norfolk Office of Elections,810 Union St ,Rm 808,Norfolk,VA,23510,757-664-4353,http://www.norfolk.gov/elections,vote@norfolk.gov,757-664-4685,Monday:08:30-17:00;Tuesday:08:30-17:00;Wednesday:08:30-17:00;Thursday:08:30-17:00;Friday:08:30-17:00
Virginia,NORTHAMPTON COUNTY,Elections Office,Northampton County Voter Registration,16404 COURTHOUSE RD,,Eastville,VA,23347,757-678-0480,,vote@co.northampton.va.us,757-678-0453,Monday:09:00-17:00;Tuesday:09:00-17:00;Wednesday:09:00-17:00;Thursday:09:00-17:00;Friday:09:00-17:00
Virginia,NORTHUMBERLAND COUNTY,Elections Office,General Registrar's Office,45 Back ST,,Heathsville,VA,22473,804-580-4655,,kdavenport@co.northumberland.va.us,888-690-1934,Monday:09:00-17:00;Tuesday:09:00-17:00;Wednesday:09:00-17:00;Thursday:09:00-17:00;Friday:09:00-17:00
Virginia,NORTON CITY,Elections Office,NORTON CITY REGISTRARS OFFICE,201 Park Ave NE,,Norton,VA,24273,276-679-1162,,govote720@yahoo.com,276-679-0754,Monday:08:30-17:00;Tuesday:08:30-17:00;Wednesday:08:30-17:00;Thursday:08:30-17:00;Friday:08:30-17:00
Virginia,NOTTOWAY COUNTY,Elections Office,Nottoway County General Registrar's Office,507 Miller St,,Burkeville,VA,23922,434-767-2135,,govote135@gmail.com,434-767-2414,Monday:08:30-16:30;Tuesday:08:30-16:30;Wednesday:08:30-16:30;Thursday:08:30-16:30;Friday:08:30-16:30
Virginia,ORANGE COUNTY,Elections Office,Orange County,146 N Madison Rd ,Ste 204,Orange,VA,22960,540-672-5262,http://orangecountyva.gov/index.aspx?nid=354,vote@orangecountyva.gov,540-672-4872,Monday:08:00-17:00;Tuesday:08:00-17:00;Wednesday:08:00-17:00;Thursday:08:00-17:00;Friday:08:00-17:00
Virginia,PAGE COUNTY,Elections Office,Voter Registration & Elections,103 S Court St ,Ste D,Luray,VA,22835,540-743-3986,,cgaunt@pagecounty.virginia.gov,540-743-1988,Monday:08:30-16:30;Tuesday:08:30-16:30;Wednesday:08:30-16:30;Thursday:08:30-16:30;Friday:08:30-16:30
Virginia,PATRICK COUNTY,Elections Office,Patrick County General Registar's Office,106 Rucker St ,Rm 216,Stuart,VA,24171,276-694-7206,http://www.co.patrick.va.us/registrar,staylor@co.patrick.va.us,276-694-5488,Monday:08:00-17:00;Tuesday:08:00-17:00;Wednesday:08:00-17:00;Thursday:08:00-17:00;Friday:08:00-17:00
Virginia,PETERSBURG CITY,Elections Office,Voter Registrations & Elections,229 N Market St,,Petersburg,VA,23803,804-733-8071,,PetersburgElections@comcast.net,804-733-8080,Monday:08:30-17:00;Tuesday:08:30-17:00;Wednesday:08:30-17:00;Thursday:08:30-17:00;Friday:08:30-17:00
Virginia,PITTSYLVANIA COUNTY,Elections Office,Pittsylvania County Voter Registration,110 Old Chatham Elementary Ln,,Chatham,VA,24531,434-432-7971,,kelly.keesee@pittgov.org,434-432-7973,Monday:09:00-17:00;Tuesday:09:00-17:00;Wednesday:09:00-17:00;Thursday:09:00-17:00;Friday:09:00-17:00
Virginia,POQUOSON CITY,Elections Office,Poquoson City General Registrar's Office,500 City Hall Ave,,Poquoson,VA,23662,757-868-3070,http://ci.poquoson.va.us,Tammi.Pinckney@poquoson-va.gov,757-868-3104,Monday:08:30-16:30;Tuesday:08:30-16:30;Wednesday:08:30-16:30;Thursday:08:30-16:30;Friday:08:30-16:30
Virginia,PORTSMOUTH CITY,Elections Office,Office of the General Registrar,801 Crawford St ,Fl 1,Portsmouth,VA,23704,757-393-8644,http://www.portsmouthva.gov/registrar,registrar@portsmouthva.gov,757-393-5415,Monday:08:00-17:00;Tuesday:08:00-17:00;Wednesday:08:00-17:00;Thursday:08:00-17:00;Friday:08:00-17:00
Virginia,POWHATAN COUNTY,Elections Office,Powhatan's Office of Elections & Voter Registration,3910 Old Buckingham Rd ,Ste E,Powhatan,VA,23139,804-598-5604,http://www.powhatanva.gov/310/Voter-Registrar,kalexander@powhatanva.gov,804-598-5607,Monday:09:00-17:00;Tuesday:09:00-17:00;Wednesday:09:00-17:00;Thursday:09:00-17:00;Friday:09:00-17:00
Virginia,PRINCE EDWARD COUNTY,Elections Office,Prince Edward County General Registrar's Office,Prince Edward County Courthouse,,Farmville,VA,23901,434-392-4767,http://www.co.prince-edward.va.us,registrar@co.prince-edward.va.us,434-392-3889,Monday:08:30-16:30;Tuesday:08:30-16:30;Wednesday:08:30-16:30;Thursday:08:30-16:30;Friday:08:30-16:30
Virginia,PRINCE GEORGE COUNTY,Elections Office,Voter Registration,6602 Courts Dr ,Ste 243,Prince George,VA,23875,804-722-8748,,aricheson@princegeorgecountyva.gov,804-733-2793,Monday:08:30-17:00;Tuesday:08:30-17:00;Wednesday:08:30-17:00;Thursday:08:30-17:00;Friday:08:30-17:00
Virginia,PRINCE WILLIAM COUNTY,Elections Office,Prince William County Office of Elections,9250 Lee Ave ,Ste 1,Manassas,VA,20110,703-792-6470,http://www.pwcvotes.com,pwcvote@pwcgov.org,703-792-6461,Monday:08:30-17:00;Tuesday:08:30-17:00;Wednesday:08:30-17:00;Thursday:08:30-17:00;Friday:08:30-17:00
Virginia,PULASKI COUNTY,Elections Office,Office of Elections,87 Commerce St,,Pulaski,VA,24301,540-980-2111,,kwebb@pulaskicounty.org,540-994-5883,Monday:08:30-16:30;Tuesday:08:30-16:30;Wednesday:08:30-16:30;Thursday:08:30-16:30;Friday:08:30-16:30
Virginia,RADFORD CITY,Elections Office,Office of Elections,619 2nd St ,Rm 143,Radford,VA,24141,540-731-3639,http://www.radfordva.gov/252/Director-of-Elections,tracy.howard@radfordva.gov,540-633-0152,Monday:08:30-17:00;Tuesday:08:30-17:00;Wednesday:08:30-17:00;Thursday:08:30-17:00;Friday:08:30-17:00
Virginia,RAPPAHANNOCK COUNTY,Elections Office,Registrar of Voters,262A Gay St,,Washington,VA,22747,540-675-5380,http://www.rappahannockcountyva.gov/voter.html,vote@rappahannockcountyva.gov,540-675-5381,Monday:08:00-16:00;Tuesday:08:00-16:00;Wednesday:08:00-16:00;Thursday:08:00-16:00;Friday:08:00-16:00
Virginia,RICHMOND CITY,Elections Office,Office of the General Registrar,900 E Broad St ,Rm 105,Richmond,VA,23219,804-646-5950,http://www.richmondgov.com/Registrar/index.aspx,VoterRegistration@richmondgov.com,804-646-7848,Monday:08:00-17:00;Tuesday:08:00-17:00;Wednesday:08:00-17:00;Thursday:08:00-17:00;Friday:08:00-17:00
Virginia,RICHMOND COUNTY,Elections Office,Richmond County General Registrar's Office,101 Court Cir,,Warsaw,VA,22572,804-333-4772,http://www.co.richmond.va.us/departments/voter-registration-office,govote159@co.richmond.va.us,804-333-4641,Monday:09:00-17:00;Tuesday:09:00-17:00;Wednesday:09:00-17:00;Thursday:09:00-17:00;Friday:09:00-17:00
Virginia,ROANOKE CITY,Elections Office,Roanoke City Voter Registration and Elections,317 Kimball Ave NE,,Roanoke,VA,24016,540-853-2281,http://www.roanokeva.gov/registrar,registrar@roanokeva.gov,540-853-1025,Monday:08:00-17:00;Tuesday:08:00-17:00;Wednesday:08:00-17:00;Thursday:08:00-17:00;Friday:08:00-17:00
Virginia,ROANOKE COUNTY,Elections Office,Roanoke County Department of Elections,900 Chestnut St,,Vinton,VA,24179,540-772-7500,http://www.roanokecountyva.gov/elections,acloeter@roanokecountyva.gov,,Monday:08:00-16:00;Tuesday:08:00-16:00;Wednesday:08:00-16:00;Thursday:08:00-16:00;Friday:08:00-16:00
Virginia,ROCKBRIDGE COUNTY,Elections Office,Rockbridge County Voter Registration,150 S Main St,,Lexington,VA,24450,540-463-7203,,shall@rockbridgecountyva.gov,540-463-1078,Monday:08:30-17:00;Tuesday:08:30-17:00;Wednesday:08:30-17:00;Thursday:08:30-17:00;Friday:08:30-17:00
Virginia,ROCKINGHAM COUNTY,Elections Office,Rockingham County,20 E Gay St,,Harrisonburg,VA,22802,540-564-3055,http://www.rockinghamcountyva.gov,lgooden@rockinghamcountyva.gov,540-564-3057,Monday:08:00-17:00;Tuesday:08:00-17:00;Wednesday:08:00-17:00;Thursday:08:00-17:00;Friday:08:00-17:00
Virginia,RUSSELL COUNTY,Elections Office,Voter Registration,96 Russell St,,Lebanon,VA,24266,276-889-8006,,govote167@bvu.net,276-889-8022,Monday:08:00-16:00;Tuesday:08:00-16:00;Wednesday:08:00-16:00;Thursday:08:00-16:00;Friday:08:00-16:00
Virginia,SALEM CITY,Elections Office,Salem City Registrar's Office,19 E Clay St,,Salem,VA,24153,540-375-3034,,doliver@salemva.gov,540-375-4052,Monday:08:00-17:00;Tuesday:08:00-17:00;Wednesday:08:00-17:00;Thursday:08:00-17:00;Friday:08:00-17:00
Virginia,SCOTT COUNTY,Elections Office,Scott County Voter Registrarion,190 Beech St ,Ste 204,Gate City,VA,24251,276-386-3843,,medwards@scottcountyva.com,276-386-3741,Monday:08:00-16:00;Tuesday:08:00-16:00;Wednesday:08:00-16:00;Thursday:08:00-16:00;Friday:08:00-16:00
Virginia,SHENANDOAH COUNTY,Elections Office,Voter Registration & Elections,600 N Main St ,Ste 103,Woodstock,VA,22664,540-459-6195,http://shenandoahcountyva.us/voting/,lmcdonald@shenandoahcountyva.us,540-459-6196,Monday:08:30-16:30;Tuesday:08:30-16:30;Wednesday:08:30-16:30;Thursday:08:30-16:30;Friday:08:30-16:30
Virginia,SMYTH COUNTY,Elections Office,Smyth County Department of Elections,121 Bagley Cir ,Ste 422,Marion,VA,24354,276-706-8331,,sandy.elswick@hotmail.com,276-783-9055,Monday:09:00-17:00;Tuesday:09:00-17:00;Wednesday:09:00-17:00;Thursday:09:00-17:00;Friday:09:00-17:00
Virginia,SOUTHAMPTON COUNTY,Elections Office,Southampton County General Registrar's Office,22305 Main St,,Courtland,VA,23837,757-653-9280,,lburgess@socogovote.com,757-653-9401,Monday:08:30-17:00;Tuesday:08:30-17:00;Wednesday:08:30-17:00;Thursday:08:30-17:00;Friday:08:30-17:00
Virginia,SPOTSYLVANIA COUNTY,Elections Office,OFFICE OF ELECTIONS,4708 Southpoint Pkwy,,Fredericksburg,VA,22407,540-507-7380,http://www.spotsylvania.va.us/vote,voter@spotsylvania.va.us,540-507-7519,Monday:08:30-16:30;Tuesday:08:30-16:30;Wednesday:08:30-16:30;Thursday:08:30-16:30;Friday:08:30-16:30
Virginia,STAFFORD COUNTY,Elections Office,Office of the General Registrar,1300 Courthouse Rd,,Stafford,VA,22554,540-658-4000,http://staffordcountyva.gov/registrar,registrar@staffordcountyva.gov,540-658-4003,Monday:08:00-16:30;Tuesday:08:00-16:30;Wednesday:08:00-16:30;Thursday:08:00-16:30;Friday:08:00-16:30
Virginia,STAUNTON CITY,Elections Office,Staunton City General Registrar's Office,116 W Beverley St ,Fl 1,Staunton,VA,24401,540-332-3840,https://www.ci.staunton.va.us/departments/registrar,vote@ci.staunton.va.us,540-332-3834,Monday:09:00-17:00;Tuesday:09:00-17:00;Wednesday:09:00-17:00;Thursday:09:00-17:00;Friday:09:00-17:00
Virginia,SUFFOLK CITY,Elections Office,Suffolk City General Registrar's Office,Human Resources Building,,Suffolk,VA,23434,757-514-7750,,ssaunders@suffolkva.us,757-514-7759,Monday:08:30-16:30;Tuesday:08:30-16:30;Wednesday:08:30-16:30;Thursday:08:30-16:30;Friday:08:30-16:30
Virginia,SURRY COUNTY,Elections Office,Voter Registration,45 School ST,,Surry,VA,23883,757-294-5213,,swhite@surrycountyva.gov,757-294-5285,Monday:08:30-16:30;Tuesday:08:30-16:30;Wednesday:08:30-16:30;Thursday:08:30-16:30;Friday:08:30-16:30
Virginia,SUSSEX COUNTY,Elections Office,Voter Registration Office,15080 Courthouse Rd,,Stony Creek,VA,23882,434-246-1047,,right2voteSUSSEX@yahoo.com,434-246-4315,Monday:09:00-17:00;Tuesday:09:00-17:00;Wednesday:09:00-17:00;Thursday:09:00-17:00;Friday:09:00-17:00
Virginia,TAZEWELL COUNTY,Elections Office,Tazewell County,2848 Riverside Dr,,North Tazewell,VA,24630,276-385-1305,http://www.votetazewellcounty.com/,govote@tazewellcounty.org,276-258-0801,Monday:08:00-16:00;Tuesday:08:00-16:00;Wednesday:08:00-16:00;Thursday:08:00-16:00;Friday:08:00-16:00
Virginia,VIRGINIA BEACH CITY,Elections Office,City of Virginia Beach,2449 Princess Anne Rd ,Bldg 14,Virginia Beach,VA,23456,757-385-8683,http://www.vbgov.com/voter,voter@vbgov.com,757-385-5632,Monday:08:00-17:00;Tuesday:08:00-17:00;Wednesday:08:00-17:00;Thursday:08:00-17:00;Friday:08:00-17:00
Virginia,WARREN COUNTY,Elections Office,General Registrar's Office,465 W 15th St ,Ste 800,Front Royal,VA,22630,540-635-4327,http://www.warrencountyva.net,vote@warrencountyva.net,540-635-5456,Monday:09:00-17:00;Tuesday:09:00-17:00;Wednesday:09:00-17:00;Thursday:09:00-17:00;Friday:09:00-17:00
Virginia,WASHINGTON COUNTY,Elections Office,Washington County Department of Elections,1 Government Center Way ,Ste A,Abingdon,VA,24210,276-676-6227,https://www.washcova.com/registrar/,vote@washcova.com,276-676-6200,Monday:09:00-17:00;Tuesday:09:00-17:00;Wednesday:09:00-17:00;Thursday:09:00-17:00;Friday:09:00-17:00
Virginia,WAYNESBORO CITY,Elections Office,Waynesboro Voter Registration,250 S Wayne Ave ,Ste 205,Waynesboro,VA,22980,540-942-6620,http://www.waynesboro.va.us/126/Voter-Registration,jefferslp@ci.waynesboro.va.us,540-942-6501,Monday:09:00-17:00;Tuesday:09:00-17:00;Wednesday:09:00-17:00;Thursday:09:00-17:00;Friday:09:00-17:00
Virginia,WESTMORELAND COUNTY,Elections Office,Westmoreland County Voter Registration Office,105 Court SQ,,Montross,VA,22520,804-493-8898,,govote193@westmoreland-county.org,804-493-0158,Monday:08:30-16:30;Tuesday:08:30-16:30;Wednesday:08:30-16:30;Thursday:08:30-16:30;Friday:08:30-16:30
Virginia,WILLIAMSBURG CITY,Elections Office,City of Williamsburg,401 Lafayette St,,Williamsburg,VA,23185,757-220-6157,http://www.williamsburgva.gov,treitzel@williamsburgva.gov,757-220-6157,Monday:08:00-16:30;Tuesday:08:00-16:30;Wednesday:08:00-16:30;Thursday:08:00-16:30;Friday:08:00-16:30
Virginia,WINCHESTER CITY,Elections Office,"Office of Elections, City of Winchester",107 N East Ln,,Winchester,VA,22601,540-545-7910,http://www.winchesterva.gov/vote,vote@winchesterva.gov,540-545-7925,Monday:08:30-16:30;Tuesday:08:30-16:30;Wednesday:08:30-16:30;Thursday:08:30-16:30;Friday:08:30-16:30
Virginia,WISE COUNTY,Elections Office,Wise County General Registrar's Office,5607 Patriot Dr,,Wise,VA,24293,276-328-8331,,registrar@wisecounty.org,276-328-7111,Monday:08:30-17:00;Tuesday:08:30-17:00;Wednesday:08:30-17:00;Thursday:08:30-17:00;Friday:08:30-17:00
Virginia,WYTHE COUNTY,Elections Office,Wythe County Registrar's Office,245 S 4th St ,Ste 101,Wytheville,VA,24382,276-223-6038,,govote@wytheco.org,276-223-6039,Monday:08:30-16:30;Tuesday:08:30-16:30;Wednesday:08:30-16:30;Thursday:08:30-16:30;Friday:08:30-16:30
Virginia,YORK COUNTY,Elections Office,York County - Washington Square,5322 George Washington Mem Hwy,,Yorktown,VA,23692,757-890-3440,http://www.yorkcounty.gov/voting,registrar@yorkcounty.gov,757-890-3449,Monday:08:30-17:00;Tuesday:08:30-17:00;Wednesday:08:30-17:00;Thursday:08:30-17:00;Friday:08:30-17:00